address,country,facebook,instagram,name,phone,pinterest,twitter,web
"The St. Regis Mardavall Mallorca Resort, Carretera Palma-Andratx 19, Costa d'en Blanes, Palma de Mallorca, Spain","Palma de Mallorca, Spain",https://web.facebook.com/stregismardavall/?_rdc=1&_rdr,https://www.instagram.com/stregismardavall/,Arabella Spa at The St. Regis Mardavall Mallorca Resort,+34 971629629,,,https://www.marriott.com/en-us/hotels/pmixr-the-st-regis-mardavall-mallorca-resort/experiences/
"Mövenpick Asara Resort & Spa Hua Hin, 53 Soi Moo Ban Bo Fai, Tambon Hua Hin, Amphur Hua Hin, Prachuabkhirikhan, Thailand","Hua Hin, Thailand",,,Asara Spa,+66 32 520777,,,https://www.movenpick.com/en/asia/thailand/hua-hin/asara-resort-spa-hua-hin.html
"Azia Resort & Spa, Chlorakas Avenue, Chloraka, Paphos, Cyprus","Paphos, Cyprus",https://www.facebook.com/AziaResortCY/,https://www.instagram.com/aziaresortcy/,ASPHODEL SPA – Azia Resort & Spa,+357 26845100,,https://twitter.com/AziaResort,https://aziaresort.com/Spa
"Astra Falls Creek, 5 Sitzmark Street, Falls Creek, Victoria, Australia","Victoria, Australia",https://www.facebook.com/AstraFallsCreek,https://www.instagram.com/astrafallscreek/,Astra Day Spa,+61 357583496,,,https://astrafallscreek.com.au/day-spa/
Kontokali Bay Resort & Spa,"Corfu, Greece",https://www.facebook.com/aegeospas.gr,https://www.instagram.com/aegeospas/,Aegeo Spas at Kontokali Bay Resort & Spa,+30 2691099000,,,https://www.kontokalibay.gr/spa-hotel-corfu/
"Carnoustie Ayurveda & Wellness Resort, Mararikulam, Chennaveli, Chethy P.O, Cherthala, Alappuzha District, India","Alappuzha, India",https://www.facebook.com/CarnoustieAyurvedaandWellnessResort/,https://www.instagram.com/carnoustieresorts/,ARYAVAIDYASALA,+91  8870714466,,,https://www.carnoustieresorts.com/aryavaidyasala.php
"Mayia Exclusive Resort & Spa,","Kiotari, Greece",https://www.facebook.com/MayiaExclusiveResortSpa,https://www.instagram.com/mayiaexclusiveresort/?hl=en,Aegeo Spas at Mayia Exclusive Resort & Spa,+30 6985157329,,,https://www.hhotels.gr/mayia/spa-wellness/spa-treatments/
"Cayo Exclusive Resort & Spa, Plaka, Schisma Elountas, Crete, Greece","Crete, Greece",https://www.facebook.com/cayoresort/,https://www.instagram.com/cayoresort/,Armonia Aegeo Spa,+30 2841044700 ,,,https://www.cayoresort.com/wellness-in-cayo/
Olea All Suite Hotel,"Zakynthos, Greece",https://www.facebook.com/aegeospas.gr,https://www.instagram.com/aegeospas/,Aegeo Spas at Olea All Suite Hotel,+30 2695022452,,,https://oleaallsuitehotel.com/wellness
Sentido Unique Blue,"Crete, Greece",https://www.facebook.com/aegeospas.gr,https://www.instagram.com/aegeospas/,Aegeo Spas at Sentido Unique Blue,+30 2810333002,,,https://uniqueblueresort.gr/el/fitness-spa-el/
"The Ixian Grand & All Suites - Adults Only Hotel, Rhodes","Rhodes, Greece",https://www.facebook.com/aegeospas.gr,https://www.instagram.com/aegeospas/,Aegeo Spas at The Ixian Grand Luxurius Spa & Wellness,+30 6982985870,,,https://www.theixiangrand.gr/experiences/spa
The Ivi Mare - Designed for adults,"Paphos, Cyprus",https://www.facebook.com/aegeospas.gr,https://www.instagram.com/aegeospas/,Aegeo Spas at The Ivi Mare,+357 97910359,,,https://theivimare.com/el/spa.html
"TUI Blue Caravel, Planos, 29100","Zakynthos, Greece",https://www.facebook.com/aegeospas.gr,https://www.instagram.com/aegeospas/,Aegeo Spas at TUI Blue Caravel,+30 2695048965,,,https://caravelresortspa.gr/facilities
"Akasha Beach Hotel & Spa, 183 El. Venizelou Str., Hersonissos, Heraklion, Crete, Greece","Crete, Greece",https://www.facebook.com/akashahotel/,https://www.instagram.com/akashahotel_spa/,Akasha,+30 6983795465,,,https://www.akashabeachresort.com/wellness/
"Atmosphere Kanifushi Maldives, ","Lhaviyani Atoll, Maldives",https://www.facebook.com/atmospherekanifushi/?_rdc=1&_rdr,https://www.instagram.com/atmospherekanifushi/,Akiri Spa by Mandara,+960 6620066,,,https://www.atmosphere-kanifushi.com/experience/spa/
"Wilhelminaplein 17, 5611 HG Eindhoven","Eindhoven, Netherlands",https://www.facebook.com/aguacityspa/about/,https://www.instagram.com/agua_skininstitute/,AGUA Skin Institute,+31 407600179,,,https://www.agua.nl/
"NG AFYON, İzmir Karayolu 7.km, Afyonkarahisar, Turkey","Afyonkarahisar, Turkey",https://www.facebook.com/ngafyon/,https://www.instagram.com/ngafyon/?hl=en,Aliva Spa – NG Afyon,+90 2722202222,,https://twitter.com/ngafyon?lang=en,https://nghotels.com.tr/en/
"Tepebaşı Mh. Şehit Cevdet Koç Cd. No:65 Kırkpınar, Sapanca, Sakarya, Turkey","Sapanca, Turkey",https://www.facebook.com/ngsapanca/?rf=773296269380193,https://www.instagram.com/ngsapanca/?hl=en,Aliva Spa – NG Sapanca,+90 2642425600,,https://twitter.com/ngsapanca?lang=en,https://nghotels.com.tr/en/ng-sapanca/
"Minos Beach Art Hotel, Agios Nikolaos, Crete 721 00, Greece","Crete, Greece",https://www.facebook.com/aegeospas.gr,https://www.instagram.com/aegeospas/,ANANEA WELLNESS by Aegeo Spas at Minos Beach Art Hotel,+30 2841022345,,,https://www.minosbeach.com/wellness/
"Banana Island Resort, Doha, Qatar","Doha, Qatar",https://www.facebook.com/BananaIslandResortDohabyAnantara/,https://www.instagram.com/bananaislandresort/?hl=en,Anantara Spa and Wellness at Banana Island Resort Doha,+974 40405050 ,,https://twitter.com/bananaislanddoh?lang=en,https://www.anantara.com/en/banana-island-doha/spa
"AMAZING SPACE Spa & Wellness Hotel d\'Angleterre Hovedvagtsgade 3 1103, Copenhagen, Denmark","Copenhagen, Denmark",https://www.facebook.com/Amazing-Space-215802365155266/,https://www.instagram.com/amazingspace_/,Amazing Space,+45 33338233,,,https://amazing-space.dk
"Anantara Eastern Mangroves Hotel and Spa, Sheikh Zayed Street, Abu Dhabi, United Arab Emirates","Abu Dhabi, United Arab Emirates",https://www.facebook.com/AnantaraEasternMangroves/,https://www.instagram.com/anantaraeasternmangroves/?hl=en,Anantara Spa Abu Dhabi,+971 26561146,,https://twitter.com/anantara_hotels?lang=en,https://www.anantara.com/en/eastern-mangroves-abu-dhabi/spa
"Soğanlı, İstanbul Cd No:347, Osmangazi/Bursa, Turkey","Bursa, Turkey",https://www.facebook.com/HiltonBursa/,https://www.instagram.com/hiltonbursa/?hl=en,Aneta Spa,+90 2245000505,,https://twitter.com/hiltonbursa?lang=en,https://www.hilton.com/en/hotels/btzhihi-hilton-bursa-convention-center-and-spa/spa/
"Radisson Blu Hotel, Batumi ","Batumi, Georgia",,,"Anne Semonin Spa at Radisson Blu Hotel, Batumi",+995 577902220 ,,,https://www.radissonhotels.com/en-us/hotels/radisson-blu-batumi/fitness-wellness?cid=a%3Ase%20b%3Agmb%20c%3Aemea%20i%3Alocal%20e%3Ardb%20d%3Aeerut%20h%3AGEBUS1
"42/12-13 Moo 5, Rawai, Muang, Phuket 83130, Thailand","Phuket, Thailand",https://www.facebook.com/TheRachaPhuket/,https://www.instagram.com/theracha_phuket/,Anumba Spa,+66 76355018,https://za.pinterest.com/therachaphuket/,https://twitter.com/The_Racha,https://www.theracha.com/
"Angsana Corfu Resort & Spa, 11th km National Road Corfu to Benitses, Akra Punta, Corfu 49084 Greece","Corfu, Greece",https://www.facebook.com/angsanacorfuofficial,https://www.instagram.com/angsanacorfu/,Angsana Corfu Spa,+30 2661022900,,,https://www.angsana.com/greece/corfu/spa
"Rixos Premium Bodrum, Zeytinlikahve Mevki, Muğla, Bodrum, Turkey","Bodrum, Turkey",https://www.facebook.com/Rixospremiumbodrum,https://www.instagram.com/rixospremiumbodrum/?hl=en,Anjana Spa,+90 2523371122,,https://twitter.com/premiumbodrum,http://premiumbodrum.rixos.com/
"Avista Hideaway Phuket Patong - MGallery, 39/9 Muen Ngern Road, Pa Tong, Phuket, Thailand","Phuket, Thailand",http://facebook.com/avistahideawayphuket,https://www.instagram.com/avistahideawayphuket,Aqua Spa at Avista Hideaway Phuket Patong – MGallery,+66 76681681,,,https://www.avistahideawayphuketresort.com/phuket-spa-wellness/aqua-spa-in-phuket
"Hyatt Regency Aqaba Ayla, Marina Village, Aqaba, Jordan","Aqaba, Jordan",https://www.facebook.com/HyattRegencyAqaba/,https://www.instagram.com/hyatt_regency_aqaba_ayla/,Aqua Spa at Hyatt Regency Aqaba Ayla Resort,+962 32041234,,,https://www.hyatt.com/en-US/hotel/jordan/hyatt-regency-aqaba-ayla-resort/aqjra
"Level 2, 70D Mary Street, Brisbane, Australia","Brisbane, Australia",https://www.facebook.com/AquariusHealthSpa,https://www.instagram.com/aquarius_healthspa,Aquarius Health and Medispa,+61 730095111,,,https://aquariushealthmedispa.com.au/
Atlantica Mare Village Ayia Napa,"Ayia Napa, Cyprus",https://www.facebook.com/aegeospas.gr,https://www.instagram.com/aegeospas/,Aegeo Spas at Atlantica Mare Village Ayia Napa,+357 97910203,,,https://www.atlanticahotels.com/experiences/relax_pamper
"Atlantica Mare Village Paphos, Kissonergas Av, Kissonerga, Paphos, Cyprus","Paphos, Cyprus",https://www.facebook.com/aegeospas.gr,https://www.instagram.com/aegeospas/,Aegeo Spas at Atlantica Mare Village Paphos,+357 99735216,,,https://www.atlanticahotels.com/hotels-in-paphos/atlantica-mare-village-paphos?page=facilities
Atlantica Plimmiri,"Rhodes, Greece",https://www.facebook.com/aegeospas.gr,https://www.instagram.com/aegeospas/,Aegeo Spas at Atlantica Plimmiri Rhodes,+30 2244046076,,,https://www.atlanticahotels.com/experiences/relax_pamper
Electra Metropolis Athens,"Athens, Greece",https://www.facebook.com/aegeospas.gr,https://www.instagram.com/aegeospas/,Aegeo Spas at Electra Metropolis,+30 2103238405,,,https://www.electrahotels.gr/hotels/electra-metropolis-athens/wellness-fitness
"Electra Palace Thessaloniki, 9 Aristotelous Square, 54624","Thessaloniki, Greece",https://www.facebook.com/aegeospas.gr,https://www.instagram.com/aegeospas/,Aegeo Spas at Electra Palace,+30 2310232778,,,https://www.electrahotels.gr/hotels/electra-palace-thessaloniki/wellness-fitness/
Elysium Boutique Hotel,"Crete, Greece",https://www.facebook.com/aegeospas.gr,https://www.instagram.com/aegeospas/,Aegeo Spas at Elysium Boutique Hotel,+30 6985157164,,,http://www.elysium-beach.gr/spa/
"Almar Jesolo Resort & Spa, Via Dante Alighieri, 106, 30016 Lido di Jesolo VE","Venice, Italy",https://www.facebook.com/almarjesolo/,https://www.instagram.com/almarjesolo/#_ga=2.158686578.97317378.1563447382-335801122.1563447382,Almablu Wellness & Spa,+39 0421388103,https://za.pinterest.com/almarjesolo/#_ga=2.158686578.97317378.1563447382-335801122.1563447382,https://twitter.com/AlmarJesolo,http://www.almarjesolo.com/almablu-spa/
"Geigenbühelstrasse 185, Seefeld,Tirol, Austria","Seefeld, Austria",https://www.facebook.com/alpinresortsacher/,https://www.instagram.com/sacheralpinresort/,Alpin Aktiv Spa,+43 69914047349,,,https://seefeld.sacher.com/en/spa-active/
"36 Steenbuck Street, Skukuza, Kruger National Park, South Africa","Kruger National Park, South Africa",https://www.facebook.com/amspa.ZA,https://www.instagram.com/amspa_za/,AM Spa Kruger,+27 137441069,,https://twitter.com/amlodge_za,http://www.amspa.co.za/
"Portion 159 Fleur De Lys, Klaserie, Hoedspruit, ","Hoedspruit, South Africa",https://www.facebook.com/AMLodge,https://www.instagram.com/amspa_za/,AM Spa Hoedspruit,+27 158170182,,https://twitter.com/amlodge_za,http://www.amspa.co.za/
"Mara Bushtops Camp, Isaaten Conservancy, Masai Mara, Kenya","Masai Mara, Kenya",https://www.facebook.com/bushtops,http://instagram.com/bushtops,Amani African Spa Village at Mara Bushtops Camp,+254 733490209,http://www.pinterest.com/bushtops/,https://twitter.com/bushtops,https://bushtopscamps.com/mara/spa/
"33 Fricker Road, Illovo, Johannesburg, South Africa","Johannesburg, South Africa",https://www.facebook.com/AmaniSpaandWellness/,https://www.instagram.com/amanispas/?hl=en,Amani Spa & Wellness,+27 112682060,,,http://www.amanispas.co.za/
"Borgobrufa SPA Resort, Via Del Colle, 38, Brufa Di Torgiano, Perugia, Italy","Torgiano, Italy",https://www.facebook.com/borgobrufa,https://www.instagram.com/borgobrufa/?hl=fr,Borgobrufa SPA,+39 0759883,,,https://www.borgobrufa.it/en/spa/
"Tui Blue Elounda Village Resort & Spa by AQUILA, Elounda Crete, Greece","Crete, Greece",https://www.facebook.com/aegeospas.gr/,https://www.instagram.com/aegeospas/?hl=en,BLUE Spa by Aegeo Spas at Tui Blue Elounda Village by AQUILA,+30 2841044752,,,https://eloundavillage.com/spa-wellness.html
"Jalan Karambunai, Karambunai, 89200 Kota Kinabalu, Sabah, Malaysia","Kota Kinabalu, Malaysia",https://www.facebook.com/NexusResortSpaKarambunai/,,Borneo Spa at Nexus Resort & Spa Karambunai,+60 88480622,,,http://www.nexusresort.com
"Botanic Sanctuary Antwerp, Leopoldstraat 26, Antwerpen, Belgium","Antwerp, Belgium",https://www.facebook.com/BotanicSanctuaryAntwerp,https://www.instagram.com/botanicsanctuaryantwerp/,Botanic Health Spa,+32 32690010,,,https://www.botanicantwerp.be/botanic-health-spa-treatment-menu/
Brach Paris,"Paris, France",https://www.facebook.com/brachparis/,https://www.instagram.com/brachparis/,Brach Spa by Clarins,+33 158120303,,,https://brachparis.com/brach-le-spa/
"Boutique Hotel Corso, Stará Louka 460/38, Carlsbad, Czech Republic","Karlovy Vary, Czech Republic",https://www.facebook.com/BoutiqueHotelCorso/,https://www.instagram.com/boutiquehotelcorso/,Boutique Hotel Corso SPA,+420 353504111,,,https://www.corsohotel.com/spa-wellness
"InterContinental Melbourne the Rialto, 495 Collins Street, Melbourne, Australia","Melbourne, Australia",https://www.facebook.com/botanicaspa.au/,http://instagram.com/botanicaspa.au,Botanica Wellness Spa and Clinic,+61 396205992,,,https://www.botanicadayspa.com.au/
"InterContinental Malta, St. George's Bay, St. Julians","St Julian's, Malta",https://www.facebook.com/carismaspa,https://www.instagram.com/carismaspamalta/,Carisma Spa & Wellness,+356 23765524,,,https://www.carismaspa.com/
"Arima Grand Hotel Aqua Terrace & Spa, 1304-1 Arima-cho, Kita-ku, Kobe-shi, Hyogo 651-140","Kobe, Japan",https://www.facebook.com/arima.gh/,https://www.instagram.com/arima_grand_hotel/,CAAZE Organic Spa,+81 789040181,,,https://www.arima-gh.jp/facility/relaxation/#caaze
"Loc. Monastero D'Ombrone, 19, Castelnuovo Berardenga SI, Italy","Siena, Italy",https://www.facebook.com/CastelMonastero/,https://www.instagram.com/castelmonasteroretreatspa/,Castel Monastero Spa,+39 0577570885,,,https://www.castelmonastero.com/en/wellness-resort-tuscany
"JW Marriott Phu Quoc Emerald Bay, Kem Beach, An Thoi Town, Phu Quoc Ward, Kien Giang Province, Vietnam","Phu Quoc Island, Vietnam",https://www.facebook.com/JWMarriottPhuQuocEmeraldBay/,https://www.instagram.com/explore/locations/1087178004677852/jw-marriott-phu-quoc-emerald-bay-resort-spa/?hl=en,Chanterelle – Spa by JW,+84 2973779999,,https://twitter.com/jwphuquoc?lang=en,https://www.marriott.com/hotels/travel/pqcjw-jw-marriott-phu-quoc-emerald-bay-resort-and-spa/
"Chateau de Berne Hotel Spa Cellars, Chemin des Imberts, Flayosc, France","Flayosc, France",https://www.facebook.com/chateaudeberne/,https://www.instagram.com/chateaudeberne/,Château de Berne Spa,+33 494604980,,,https://www.chateauberne.com/en/spa/
"Shop 16 Narellan Town Centre, 2567, Narellan, Australia","Narellan, Australia",,,Beauty Base Laser & Dermal Clinic,+61 246478806,,,https://thebeautybase.com.au
"Shop 211 Narellan Town Centre, Narellan, Australia","Narellan, Australia",https://www.facebook.com/thebeautybase12,https://www.instagram.com/_thebeautybase/,Beauty Base Luxury Spa & Clinic,+61 246461832,,,https://thebeautybase.com.au
"Drafaki, Mykonos, Greece","Mykonos, Greece",https://www.facebook.com/BeautyworldDG/?ref=br_rs,https://www.instagram.com/beautyworld_mykonos/,Beautyworld by Despina Gavala,+30 6944574467,,,https://www.beautyworldbydg.gr/
"Jacksons Parade, 7 Mile, 111, Port Moresby, Papua New Guinea","Port Moresby, Papua New Guinea",https://www.facebook.com/pages/Airways-Hotel-Port-Moresby/70414713886,https://www.instagram.com/airwayshotel/,Bliss Spa,+675 3245200,,,https://www.airways.com.pg/
"143 Papanastasiou Avenue, Heraklion, Crete","Crete, Greece",https://www.facebook.com/aegeospas.gr,https://www.instagram.com/aegeospas/,Aegeo Spas,+30 2810263700,,,https://www.aegeospas.gr/
"Akti Imperial Deluxe Resort & Spa, Ialysos Avenue, 85101","Rhodes, Greece",https://www.facebook.com/aegeospas.gr,https://www.instagram.com/aegeospas/,Aegeo Spas at Akti Imperial Deluxe Resort & Spa,+30 2241079892,,,https://aktiimperial.gr/wellness-activities/#spa
"Atlantica Belvedere Resort, Giourniati Area, 85302","Kos, Greece",https://www.facebook.com/aegeospas.gr,https://www.instagram.com/aegeospas/,Aegeo Spas at Atlantica Belvedere Resort,+30 6985157364,,,https://www.atlanticahotels.com/experiences/relax_pamper
Atlantica Caldera Palace,"Crete, Greece",https://www.facebook.com/aegeospas.gr,https://www.instagram.com/aegeospas/,Aegeo Spas at Atlantica Caldera Palace,+30 698515730,,,https://www.atlanticahotels.com/experiences/relax_pamper
"Hotel Best Tenerife, Calle Antonio Dominguez Alfonso 6,  Playa de la Américas, Santa Cruz de Tenerife, Spain","Santa Cruz de Tenerife, Spain",https://www.facebook.com/spawellplus,https://www.instagram.com/spawellplus/,Best Tenerife Spa,+34 691398405,,,https://spawellplus.es/en/best-tenerife-spa/
"Atlantica Dreams Resort, Gennadi, 85109","Rhodes, Greece",https://www.facebook.com/aegeospas.gr,https://www.instagram.com/aegeospas/,Aegeo Spas at Atlantica Dreams Resort,+30 6985157191,,,https://www.atlanticahotels.com/experiences/relax_pamper
Atlantica Imperial Resort and Spa,"Rhodes, Greece",https://www.facebook.com/atlanticaimperialresort,https://www.instagram.com/explore/tags/atlanticaimperialresort/,Aegeo Spas at Atlantica Imperial Resort & Spa,+30 6985157112,,,https://www.atlanticahotels.com/hotels/Atlantica-Imperial-Resort-and-Spa?page=facilities
"Shangri-La Paris, 10 Avenue d'Iéna, Paris, France","Paris, France",https://www.facebook.com/shangrilaparis/,https://www.instagram.com/shangrilaparis/?hl=en,"Chi, The Spa at Shangri-La Paris",+33 153671978,,https://twitter.com/ShangriLaParis?ref_src=twsrc%5Egoogle%7Ctwcamp%5Eserp%7Ctwgr%5Eauthor,http://www.shangri-la.com/paris/shangrila/health-leisure/chi-the-spa/
"Barrio Pastoral, La Fortuna, Alajuela Province, ","La Fortuna, Costa Rica",https://www.facebook.com/biosferaskincare,https://www.instagram.com/biosferaskincarecr/,Biosfera Skincare Costa Rica,+506 40022320 ,,,https://biosferaproducts.com/
"SLS Dubai Hotel & Residences, Marasi Drive, Business Bay, Dubai, United Arab Emirates","Dubai, United Arab Emirates",https://www.facebook.com/slsdubai/,https://www.instagram.com/cielspadubai/?hl=en,Ciel Spa Dubai,+971 46070654,,,https://www.sbe.com/hotels/sls-hotels/dubai
"3-2-1 Loisir Spa Tower Naha, Naha City,  Okinawa, Japan","Okinawa, Japan",https://www.facebook.com/LoisirHotelNaha/?__tn__=kCH-R&eid=ARB46pDJGv3LZ0aoXnxT1n2ZpP4SMmLf2FBo_QGY-3qjyDj5124VlXZSvlmwNG31vP7CkZfBb4g6DZko&hc_ref=ARTzzerCXS4fZWszS15nx8-_nkHDWYdAOddpKyPnRNSqpHGfX26FT9mM-3OzP4u-Yu8&fref=nf&__xts__[0]=68.ARBhub27fR5EQLU76aD92-VDYSLfz3jVwXax9GqNyk6sMQwsXEDDk4IAYErQ-S6PXsg25o8B4q4V4-A4OyuAO4FeoKkUJ7Kc56uLiRVR3VWIyOJ62LVsSLk4445kfI_sAX49TetJgeRBlTjxdsK-MksfV8EL7mgf-7malb_Z3Vxw7gM-sqP-VG6h5KA08qqOthzFMflT4y4fjHu6k_amRgPUHufxyku8c4_FAWlkrdr-LPyjeJZNF0fxHOLwv2lOdgFNfGKrRdQhlQE2V4x7Gc-99U7fRNBwfKOs3zDVKD_RAMwXZ6Xj9mTh21TZo0inrOyQpJbguKY4QP8HS74C0EPQmqlj7bBWAr-m5yEuFcklIcXhdsXnG0wy5st8zFcT--BiuW0bjKTy4RsVYijrntCsPLDvMoxHwKrNh5yprqGiroYVCG2yqB8ZfXqT-90hdpQMs0uU1vtTHZy8XK_VxadQezKqY7O1r5GfMOP51UxyyiVM9e0z0M9l,https://www.instagram.com/loisirhotel/,CHURASPA,+81 988682222,,,https://www.spatower.com/spa/#churaspa
"Clinique La Prairie, ","Clarens, Switzerland",https://www.facebook.com/cliniquelaprairie,https://www.instagram.com/cliniquelaprairie/,Clinique La Prairie,+41 219893311,,https://twitter.com/cliniqueprairie,https://cliniquelaprairie.com/
"199 Yangcheng Ring Rd, Yangcheng Island, Suzhou, China, 215000","Yangcheng Island, China",https://www.facebook.com/SanghaRetreat/,https://www.instagram.com/sangharetreatbyoctaveinstitute/?hl=en,AT ONE Healing Spa at SANGHA Retreat by OCTAVE Institute,+86 51267881666,,https://twitter.com/sangharetreat?lang=en,https://preferredhotels.com/hotels/china/sangha-retreat-octave-institute
"Conrad Osaka, 3-2-4 Nakanoshima, Kita-ku, Osaka, Japan","Osaka, Japan",https://www.facebook.com/conradosaka,https://www.instagram.com/conradosaka,Conrad Spa & Fitness at Conrad Osaka,+81 662220111,,,https://www.hilton.com/en/hotels/osacici-conrad-osaka/spa/
"The Athenee Hotel, a Luxury Collection Hotel, Bangkok, 61 Witthayu Road, Lumphini, Pathum Wan District, Bangkok, Thailand","Bangkok, Thailand",https://www.facebook.com/theatheneehotel,https://www.instagram.com/theatheneehotel/,Athenee Spa,+66 26508800 ,,,https://www.marriott.com/hotels/hotel-information/fitness-spa-services/details/bkkla-the-athenee-hotel-a-luxury-collection-hotel-bangkok/6056572/
Anemos Luxury Grand Resort,"Crete, Greece",https://www.facebook.com/aegeospas.gr,https://www.instagram.com/aegeospas/,Aura Spa & Wellness Center by Aegeo Spas at Anemos Luxury Grand Resort,30 2825061101,,,https://www.anemosresort.com/en-gb/spa
"Concorde De Luxe Resort, Kemerağzı Mahallesi, Yaşar Sobutay Bulvarı, 44 Lara Antalya, Turkey","Antalya, Turkey",https://www.facebook.com/concordedeluxe/,https://www.instagram.com/concordedeluxe/?hl=en,Concorde De Luxe Resort-Spa,+90 2423522626,,https://twitter.com/concordedlx,http://www.concordehotels.com.tr/en-us/hotels/concorde-de-luxe-resort/spa-wellness
"Atmosphere Resorts & Spa, Maayong Tubig, National Road, Dauin, Negros Oriental, Philippines","Dauin, Philippines",https://www.facebook.com/atmosphere.resorts/,https://www.instagram.com/atmosphereresorts/,Atmosphere Resorts & Spa – The Sanctuary Spa,+63 9177221042,,,https://www.atmosphereresorts.com/
"W Costa Rica - Reserva Conchal, Guanacaste Province, 50308, Costa Rica","Cabo Velas, Costa Rica",https://www.facebook.com/wcostarica,https://www.instagram.com/wcostarica,Away Spa – W Reserva Conchal,+506 26543600,,https://twitter.com/wreservaconchal,https://www.marriott.com/en-us/hotels/lirwh-w-costa-rica-reserva-conchal/overview/
"W Verbier, Rue de Médran 70, Verbier, Switzerland","Verbier, Switzerland",https://www.facebook.com/wverbier/,https://www.instagram.com/wverbier/?hl=en,AWAY Spa W Verbier,+41 274728890,,https://twitter.com/WVerbier,https://www.marriott.com/hotels/hotel-information/fitness-spa-services/details/gvawh-w-verbier/6035278/
"Warehouse 1, Jebel Ali Building, Al Quoz 3, Dubai","Dubai, United Arab Emirates",https://www.facebook.com/1847formen,https://www.instagram.com/1847formen/,1847 Executive Grooming For Men,+971 8001847 ,,,https://1847formen.com/
"Abadía Retuerta, Carretera Nacional 122, km. 332,5 Sardón de Duero, Valladolid, Spain","Sardón de Duero, Spain",https://www.facebook.com/AbadiaRetuertaLeDomaine/,https://www.instagram.com/abadiaretuerta_/,Abadía Retuerta Santuario Wellness & Spa,+34 983687600,,https://twitter.com/arledomaine,https://www.abadia-retuerta.com/en/en-hotel-spa-valladolid-ribera-del-duero
"Sinner Paris, 116 Rue du Temple, Paris, France","Paris, France",https://www.facebook.com/sinnerparis/,https://www.instagram.com/sinnerparis/?hl=en,Ablutio – Sinner Spa by la Colline,+33 142722000,,,https://sinnerparis.com/en/
"17 ROUTE DE KLINGNETHAL 67530,","Ottrott, France",,,6717 Nature Hôtel & Spa,+33 367686717,,,https://6717hotelspa.com/en/
Aegean Melathron Thalasso Spa Hotel,"Kallithea, Greece",https://www.facebook.com/aegeospas.gr,https://www.instagram.com/aegeospas/,AEGEAN SPA by Aegeo Spas at Aegean Melathron Thalasso Spa Hotel,+30 2374025407,,,https://www.aegeanmelathron.gr/en-gb/spa-hotel-halkidiki
"Grand Hyatt Athens, Leof. Andrea Syngrou 115, Athina 117 45, Greece","Athens, Greece",https://www.facebook.com/GrandHyattAthensHotel/,https://www.instagram.com/grandhyattathens/?hl=en,Aegeo Spa at Grand Hyatt Athens,+30 2144021234,,,https://www.hyatt.com/en-US/hotel/greece/grand-hyatt-athens/athgh
"W Guangzhou Hotel, 26 Xian Cun Road, Pearl River New Town, Tianhe District, Guangzhou, China","Guangzhou, China",https://www.facebook.com/WGuangzhou/,https://www.instagram.com/wguangzhou/?hl=en,AWAY® Spa at W Guangzhou,+86 2066807951,,,https://www.marriott.com/en-us/hotels/canwg-w-guangzhou/experiences/
"W Kuala Lumpur, No. 121, Jalan Ampang, Kuala Lumpur, Malaysia","Kuala Lumpur, Malaysia",https://www.facebook.com/WKualaLumpur,https://www.instagram.com/wkualalumpur/,AWAY® Spa at W Kuala Lumpur,+60 327868888,,https://twitter.com/W_KualaLumpur,https://www.marriott.com/hotels/travel/kulwh-w-kuala-lumpur/
"Villa La Valencia, Carretera Transpeninsular San José-San Lucas, Col. Lomas del tule, San José del Cabo, Baja California Sur, Mexico","Los Cabos, Mexico",https://www.facebook.com/VillaLaValencia/,https://www.instagram.com/villalavalencia/,Azul Wellness Spa Center,+52 6249800900 | Ext. 1170,,https://twitter.com/VillaLaValencia,http://villalavalencia.com/los-cabos-azul-wellnes-spa-center
"European Ayurveda Resort Mandira, Wagerberg 120, Bad Waltersdorf, Austria","Bad Waltersdorf, Austria",https://www.facebook.com/ayurvedaresortmandira/,,Ayurveda Resort Mandira,+43 33332801,,,https://www.mandira-ayurveda.at/en/
"Gran Hotel Roca Nivaria, Avenida Adeje 300, Playa Paraiso, Adeje, Tenerife Island, Spain","Santa Cruz de Tenerife, Spain",https://www.facebook.com/spawellplus,https://www.instagram.com/spawellplus/,Azules de Nivaria Spa,+34 662646510,,,https://spawellplus.es/en/azules-de-nivaria-spa/
"InterContinental Koh Samui Resort, 295 Moo 3, Koh Samui, Suratthani, Thailand","Koh Samui, Thailand",https://www.facebook.com/IntercontinentalSamui,https://instagram.com/intercontinentalsamui,"Baan Thai Spa by HARNN, InterContinental Samui",+66 77429100,,https://twitter.com/InterConSamui,https://samui.intercontinental.com/
"613 Main Road, Golden Point, Ballarat, Australia","Ballarat, Australia",,https://www.instagram.com/ballaratsanctuarydayspa/,Ballarat’s Sanctuary Day Spa,+61 353271296,,,http://www.ballaratsanctuary.com.au/
"Hotel H10 Atlantic Sunset, Av. Adeje 300, Santa Cruz de Tenerife, Spain","Santa Cruz de Tenerife, Spain",https://www.facebook.com/h10atlanticsunset,https://www.instagram.com/h10atlanticsunset/,Despacio Spa Atlantic Sunset,+34 922757435 Ext. 9988,,,https://www.mysauna.info/en/80-despacio-spa-centre-in-h10-atlantic-sunset
"Silver Palm Spa & Resort, Bofa Road, Kilifi North, Kilifi, Kenya","Kilifi, Kenya",https://www.facebook.com/silverpalmspaandresort/,https://www.instagram.com/silverpalmspaandresort/,Barizi Spa,+254 715491560,,,http://www.silverpalmkilifi.co.ke/barizi-spa/
"Shop 107, 33 Village Circuit Gregory Hills, New South Wales, Australia","New South Wales, Australia",,,Beauty Base Boutique Medispa,+61 289991480,,,https://thebeautybase.com.au/boutique-medispa/
"Igdir Mah. Igdir Sok. Icmeler Mevkii NO:585/A Akdeniz/Mersin, Türkiye, Turkey","Mersin, Turkey",https://www.facebook.com/bnhotels,https://www.instagram.com/bnhotels/,"Beauty & Nature SPA, BN Hotel Thermal & Wellness",+90 3244225242 ,,https://twitter.com/BnHotel,https://bnhotels.com.tr/en/
"Bodurasgefaanu Magu, K. Atoll Malé Maldives","Dhaalu Atoll, Maldives",https://www.facebook.com/baglionimaldives/,https://www.instagram.com/baglioniresortmaldives/,"Baglioni Spa, Maldives",+960 4000600,,,https://www.baglionihotels.com/baglioni-resort-maldives/baglioni-spa/
"Dobrograd Hotel, Gorozhenovo, Vladimir Oblast, Russia","Gorozhenovo, Russia",https://www.facebook.com/GorodDobrograd/,https://www.instagram.com/goroddobrograd/,Dobrograd,+7 4923294864,,,https://dobrograd-hotel.ru/wellness-spa/
"Azur Real Hotel Boutique & Spa, San Jerónimo 243/257, Córdoba, Argentina ","Cordoba, Argentina",https://www.facebook.com/AzurRealHotelBoutique,https://www.instagram.com/azurhotel,Baños de Azur,+54 3514247133,,,https://azurrealhotel.com/portal/es-es/2227/Home
"Dollenberg Schwarzwald Resort, Dollenberg 3, Bad Peterstal-Griesbach, Germany","Bad Peterstal-Greisbach, Germany",https://www.facebook.com/HotelDollenberg/,https://www.instagram.com/hotel_dollenberg/,DOLLINA Spa & Health,+49 780678143,,,http://www.dollenberg.de/spa/
"Mudhdhoo Island, Baa Atoll, Republic of Maldives","Baa Atoll, Maldives",,,Devarana Wellness at Dusit Thani Maldives,+960 6608888,,,https://www.dusit.com/dusitthani-maldives/devarana-wellness/
"Olympia Golden Beach Resort & Spa, Kastro Kyllini Beach, Kastro, Greece","Kastro, Greece",https://www.facebook.com/OlympiaGoldenBeach,https://www.instagram.com/olympiagoldenbeach/?hl=en,Dream Spa at Olympia Golden Beach Resort & Spa,+30 2623095999,,,http://www.ogb.gr/
"Heulentakstraat 12, Dilsen, Belgium","Dilsen, Belgium",https://www.facebook.com/craithlabHQ,https://www.instagram.com/craithlab_official/,Craith Lab,+32 89590028,,,https://www.craithlab.com/
"Dubai, United Arab Emirates ","Dubai, United Arab Emirates",https://www.facebook.com/Dreamworks-Spa-103150947904502,https://www.instagram.com/dreamworksspa/,Dreamworks Spa,800-MASSAGE (6277243),,,https://www.dreamworks.ae/
"Crowne Plaza Jordan - Dead Sea Resort & Spa, Dead Sea Road, The Dead Sea, Swemieh, Jordan","Swemieh, Jordan",https://www.facebook.com/dsante.spa,https://www.instagram.com/dsantespa/,D’Sante Spa,+962 53494000,,,https://www.ihg.com/crowneplaza/hotels/gb/en/swemieh/nscjo/hoteldetail
"1 Barangaroo Avenue, Sydney, Australia","Sydney, Australia",https://www.facebook.com/CrownSydney/,https://www.instagram.com/crownsydney/,Crown Spa Sydney,+61 288716368,,,https://www.crownhotels.com.au/sydney/crown-spa
"Der Öschberghof, Golfplatz 1, D-78166 Donaueschingen","Donaueschingen, Germany",https://www.facebook.com/Oeschberghof,https://www.instagram.com/oeschberghof/,Der Öschberghof Spa,+49 77184548,,,https://www.oeschberghof.com/en/spa-gym/wellness
"Via Borgo Vico 241, Como, Italy","Como, Italy",https://www.facebook.com/HiltonLakeComo/,https://www.instagram.com/hiltonlakecomo/?hl=en,eforea spa and health club at Hilton Lake Como,+39 0313382611,,https://twitter.com/hiltonhotels?lang=en,https://lakecomo-en.eforeaspa.com/
"Hilton Molino Stucky Venice, Giudecca 810, Venice, Italy","Venice, Italy",https://www.facebook.com/hiltonmolinostuckyvenice/,https://www.instagram.com/hiltonvenice/,eforea Spa at Hilton Molino Stucky Venice,+39 0412723414,,https://twitter.com/HiltonVenice,https://eforeaspavenice.com
"Villa del Arco Beach Resort & Spa, Camino Viejo a San José Km. 0.5, Col. El Médano, Cabo San Lucas, Baja California, México","Cabo San Lucas, Mexico",https://www.facebook.com/DesertSpaLosCabos/,https://www.instagram.com/villadelarcocsl/?hl=en,Desert Spa at Villa del Arco,+52 6241457202,,https://twitter.com/VilladelArcoCSL,http://villadelarco.com/desert-spa
"Delaire Graff Estate, Helshoogte Road, Stellenbosch, South Africa","Stellenbosch, South Africa",https://www.facebook.com/DelaireGraff,https://www.instagram.com/delairegraff/,Delaire Graff Spa,+27 218858160,,,https://www.delaire.co.za/spa/
"Hilton Pattaya, 333/101 Moo 9, Nongprue, Banglamung, Chonburi, Thailand","Pattaya City, Thailand",https://www.facebook.com/PattayaHilton/,https://www.instagram.com/hiltonpattaya/,eforea spa at Hilton Pattaya,+66 38253000,,https://twitter.com/HiltonPattaya?ref_src=twsrc%5Egoogle%7Ctwcamp%5Eserp%7Ctwgr%5Eauthor,https://www.hilton.com/en/hotels/bkkhphi-hilton-pattaya/
"Hilton Rijeka Costabella Beach Resort & Spa, Opatijska ul. 9, Rijeka, Croatia","Rijeka, Croatia",https://www.facebook.com/hiltonrijekacostabellaresort/,https://www.instagram.com/hiltoncostabellaresort/?hl=en,eforea Spa & Health Club at Hilton Rijeka Costabella Beach Resort & Spa,+385 51600100,,,http://www.hilton.com/en/hotels/rjkochi-hilton-rijeka-costabella-beach-resort-and-spa
"Hilton Queenstown Resort & Spa, 79 Peninsula Road, Kelvin Heights, Queenstown, New Zealand","Queenstown, New Zealand",https://www.facebook.com/hiltonkawarauvillage/?rf=397199807047045,https://www.instagram.com/explore/locations/188924815090482/hilton-queenstown-resort-and-spa/?hl=en,eforea spa at Hilton Queenstown Resort & Spa,+64 34509416,,,https://www.hilton.com/en/hotels/zqnhqhi-hilton-queenstown-resort-and-spa/spa/
"Hilton Salwa Beach Resort & Villas, Salwa Road Exit 84, Learaig Interchange, Abu Samra, Qatar","Abu Samra, Qatar",https://www.facebook.com/hiltonsalwa,https://www.instagram.com/salwabeachresort/?hl=en,eforea Spa at Hilton Salwa Beach Resort & Villas,+974 44236401,,,https://www.hilton.com/en/hotels/dohsbhi-hilton-salwa-beach-resort-villas/?WT.mc_id=zMDEC0QA1HI2NaturalSearch3Google_LGHotelListing4DGGeneric_5LocalSearch6DOHSBHI7EN8i99638
"Swandor Hotels & Resorts Topkapi Palace,","Aksu, Turkey",https://www.facebook.com/SwandorHotelsResortsTopkapiPalace/,https://www.instagram.com/swandortopkapipalace/,Egna SPA at Swandor Topkapı Palace,+90 2424312600,,,http://www.swandorhotels.com/en/hotels/topkapi-palace/
"Viale Ammiraglio Morin, 67, Forte dei Marmi LU, Italy","Forte dei Marmi, Italy",https://www.facebook.com/PrincipeForteDeiMarmi/,https://www.instagram.com/principe_forte_dei_marmi/,Egoista Spa,+39 0584783636,,https://twitter.com/principe_fdm?lang=en,https://www.principefortedeimarmi.com/en/egoista-spa.html
"Ozen Reserve Bolifushi, Bolifushi Island Kaafu Atoll","Kaafu Atoll, Maldives",https://www.facebook.com/elenaspacompany?_rdc=1&_rdr,https://www.instagram.com/elenaspacompany/,ELE | NA Elements of Nature at Ozen Reserve Bolifushi,+960 6642020,,,https://ele-na.com/ele-na/ele-na-elements-of-nature
"EALA My Lakeside Dream, Via IV Novembre, 86, Limone Sul Garda, ","Limone Sul Garda, Italy",https://www.facebook.com/EalaMyLakesideDream,https://www.instagram.com/ealamylakesidedream/,EALA Luxury Spa,+39 0365954613,,,
"Domina Coral Bay, 46619 Sharm El Sheikh, Egypt","Sharm El Sheikh, Egypt",https://www.facebook.com/dominacoralbay.sharm.el.sheikh/,https://www.instagram.com/dominacoralbay,Elisir Spa & Thalasso,+20 6936301510,,,https://www.dominacoralbay.com/
"Akakura Kanko Hotel, 216 Tagiri, Myoko City, Niigata","Niigata, Japan",,https://www.instagram.com/earth_spa_akakura/,Earth Spa by elemental herbology,+81 255872501 ,,,https://www.akr-hotel.com/earth-spa/
"Shima Kanko Hotel The Bay Suite, 731 Shinmei, Ago-cho, Shima-shi, Mie, Japan","Shima, Japan",https://www.facebook.com/tdsosaka/,https://www.instagram.com/the_day_spa_japan/?hl=ja,eau SPA,+81 120880310,,,https://www.thedayspa.jp/location/eau/
"Number One Ballsbridge, Shelbourne Rd, Dublin, Ireland","Dublin, Ireland",https://www.facebook.com/EdenOne.ie,https://www.instagram.com/edenone_ie/,Eden Elements at Eden One,+353 2150640‬ ,,,https://edenone.ie
"Level 4 5 & 6, Dundrum Town Centre, Dundrum, Dublin, Ireland","Dublin, Ireland",https://www.facebook.com/pinkdundrum,https://www.instagram.com/edvardandpink/?hl=en,Edvard & Pink,+353 12165050,,https://twitter.com/edvardandpink,http://www.edvardandpink.ie/
"Eden Health Retreat, 1815 Currumbin Creek Road, Currumbin Valley, Queensland, Australia","Currumbin Valley, Australia",https://www.facebook.com/EdenHealthRetreat,https://www.instagram.com/eden_health_retreat/,Eden Spa,+61 755330333,,,https://edenhealthretreat.com.au/
"Emerald Maldives Resort & Spa, Fasmendhoo Island, Raa Atoll, Maldives","Raa Atoll, Maldives",https://www.facebook.com/EmeraldMaldivesResortSpa/,https://www.instagram.com/emeraldmaldivesresortspa/,Emerald Spa,+960 6582100,,,https://www.emerald-maldives.com/experiences/emerald-spa
"10 Leoforos Alexandras, Athens, Greece","Athens, Greece",https://www.facebook.com/elxisspa.gr/,https://www.instagram.com/elxisspa/?hl=en,Elxis Medical Wellness Spa,+30 2107015392,,,http://www.elxis-spa.gr/
"Conrad Algarve, Estrada da Quinta do Lago, 8135-106 Almancil","Almancil, Portugal",http://facebook.com/ConradAlgarve/,https://www.instagram.com/conradalgarve/,Conrad Spa Algarve,+351 289350830,,https://twitter.com/conradalgarve,https://www.conradalgarve.com/relax/spa
"Conrad Manila, Seaside Boulevard corner Coral Way, Mall of Asia Complex, Pasay City, Philippines","Pasay City, Philippines",https://www.facebook.com/ConradManilaPH,https://instagram.com/conradmanila/,Conrad Spa Manila,+63 286833920,https://www.pinterest.com/conradhotels/,https://twitter.com/ConradManila,https://conradhotels3.hilton.com/en/hotels/philippines/conrad-manila-MNLMBCI/index.html
"10 Gukjegeumyung-ro, Yeoeuido-dong, Yeongdeungpo-gu, Seoul, South Korea","Seoul, South Korea",https://www.facebook.com/conradseoul,http://instagram.com/conradseoul,"Conrad Spa, Seoul",+82 261377432,,,https://conradhotels3.hilton.com/en/hotels/south-korea/conrad-seoul-SELCICI/amenities/spas-fitness.html
"Conrad Tulum Riviera Maya, Carretera Cancun Tulum 307 Tulkal Chemuyil, Tulum, Q.R., Mexico","Tulum, Mexico",https://www.facebook.com/ConradTulumRivieraMaya/,https://www.instagram.com/conradtulumrivieramaya/?hl=en,Conrad Spa Tulum,+52 9841951050,,,https://www.hilton.com/en/hotels/cuncici-conrad-tulum-riviera-maya/spa/
"Constance Ephelia Resort, Port Launay, Mahé, Seychelles","Mahé, Seychelles",https://www.facebook.com/constancehotels,https://www.instagram.com/constancehotels/,Constance Spa at Constance Ephelia Seychelles,+248 4395000,,https://twitter.com/constancehotels,https://www.constancehotels.com/en/true-experiences/spa/ephelia/
"Adams Beach Hotel, Nissi Avenue 86, Ayia Napa, Cyprus","Ayia Napa, Cyprus",https://www.facebook.com/AdamsBeachHotelCyprus,https://www.instagram.com/adamsbeachhotel/,Coral Spa – By Adams Beach Hotel,+357 23840181,,,https://www.adams.com.cy/
"Corinthia London, Whitehall Place London, SW1A 2BD","London, United Kingdom",https://www.facebook.com/ESPALifeAtCorinthia,https://www.instagram.com/espalifeatcorinthia,ESPA Life at Corinthia London,+44 2073213050,,,https://www.espalifeatcorinthia.com
"SGAS 616, Ed. Linea Vitta, Block C, Room 224, Coverage South Wing, Federal District, Brazil","Federal District, Brazil",https://www.facebook.com/essenceclinicspa/,https://www.instagram.com/essenceclinicspa/?hl=en,Essence ClinicSPA,+55 6132620413,,,https://www.essenceclinicspa.com.br/
"Nikolay Haytov 3, 1113 g.k. Iztok, Sofia, Bulgaria","Sofia, Bulgaria",https://www.facebook.com/estespa/,https://www.instagram.com/estespa.bg/?hl=en,Este Fitness & Spa,+359 877102277,,,https://www.estespa.bg/
"Mystras,","Sparta, Greece",https://www.facebook.com/EuphoriaRetreat/,https://www.instagram.com/euphoriaretreat/,Euphoria Retreat,+302731306111,,,https://www.euphoriaretreat.com
"Izu Hotel Resort & Spa, 1457-30 Naramoto, Higashiizu, Kamo District, Shizuoka, Japan","Shizuoka, Japan",https://www.facebook.com/tdsosaka/,https://www.instagram.com/thedayspa_home/,Étoile Spa,+81 557225151 ,,,https://www.izu-hotel.com/#spa
"Fairmont Rio de Janeiro Copacabana, Av. Atlântica 4240, Copacabana, Rio de Janeiro, Brazil","Rio de Janeiro, Brazil",https://www.facebook.com/fairmontrjcopacabana/,https://www.instagram.com/fairmontrio/,Fairmont SPA at Fairmont Rio de Janeiro Copacabana,+55 2125251232,,,https://fairmontrio.com/en/fairmont-spa/
"TUI BLUE Oceanis Beach and Spa Resort, Psalidi, Kos, Greece","Kos, Greece",,,Euphoria Spa,+30 2242024641,,,https://www.oceanis-hotel.gr/
"12 route d’Amizmiz, Marrakech, Morocco","Marrakech, Morocco",https://www.facebook.com/FairmontRoyalPalmMarrakech,https://www.instagram.com/fairmontmarrakech/,Fairmont Spa at Fairmont Royal Palm Marrakech,+212 524487872,,,https://www.fairmont.com/marrakech/spa/spa-wellness/
"Fairmont Tazi Palace Tangier, Palais Tazi Ksar Al Mandoub Jamaa Mokrae Quartier Boubana, Tangier, Morocco","Tangier, Morocco",https://facebook.com/FairmontTaziPalaceTanger/,https://www.instagram.com/fairmonttazipalacetangier/,Fairmont SPA at Fairmont Tazi Palace Tangier,+212 539378989,,,https://www.fairmont.com/tangier/spa/fairmont-tazi-palace-spa/
"Farnham Estate Spa & Golf Resort, Coras Point, Cavan, Ireland","Cavan, Ireland",https://www.facebook.com/farnhamestateresort/,https://www.instagram.com/farnhamestate/,Farnham Estate Health Spa,+353 494377700,https://www.pinterest.com/radissonblufarn/,https://twitter.com/farnhamestate,https://www.farnhamestate.ie
"Wattegedara Road, Maharagama, Sri Lanka","Maharagama, Sri Lanka",https://www.facebook.com/frellame/,https://www.instagram.com/frella_wellness/?hl=en,Frella International Pvt Ltd,+94 777537372,,,http://www.frellainternational.com
"Staza Zdravlja 39, Vrdnik, Vojvodina, Serbia","Vojvodina, Serbia",https://www.facebook.com/movenpickfrusketerme/,https://www.instagram.com/movenpickfrusketerme/,Fruske Terme,+381 222155240,,,https://all.accor.com/hotel/C0B0/index.en.shtml
"933 Fernleigh Road, Brooklet, NSW, Australia","Brooklet, Australia",https://www.facebook.com/gaiaretreatandspa/,https://www.instagram.com/gaiaretreat/,Gaia Retreat & Spa,+61 266871216,,https://twitter.com/GaiaRetreat,https://gaiaretreat.com.au/
"Rua Barao De Guarauna 483, Juveve, Curitiba, Brazil","Curitiba, Brazil",https://www.facebook.com/pages/Gaya-Yoga-Spa/143174569031735,https://www.instagram.com/gayabemestar/,Gaya Bem Estar,+55 4130131115,,,https://gayabemestar.com.br/
"25000 Glen Ivy Road, Temescal Valley, Corona, Califorinia, United States of America","Corona, United States of America",https://www.facebook.com/GlenIvyHotSprings,https://www.instagram.com/glenivy_spa/,Glen Ivy Hot Springs,+1 8884536489,https://za.pinterest.com/glenivy/,https://twitter.com/GlenIvySpas,https://www.glenivy.com
"Novinskiy Bul'var, 20 а, стр. 9, Moscow, Russia","Moscow, Russia",https://www.facebook.com/gmtclinic,https://www.instagram.com/gmtclinic/?hl=en,GMTClinic,+7 4992900029,,,https://gmt-clinic.ru/?utm_source=luxuryspaawards.com
"37/10 Soi Langsuan, Phloen Chit Road, Lumpini, Pathumwan, Bangkok","Bangkok, Thailand",https://www.facebook.com/gocohospitality/,https://www.instagram.com/goco_hospitality/,GOCO Hospitality,+66 22526288,,,https://gocohospitality.com/
"Level 29, Alfardan Towers Residential, Al Funduq St. West Bay, Doha, Qatar","Doha, Qatar",https://www.facebook.com/GuerlainSpaAlfardan,https://www.instagram.com/guerlainspa_alfardan/,Guerlain Spa Alfardan,+971 44208660,,,https://alfardanspa.com/
"1300-8 Gora, Hakone-machi, Ashigarashimo-gun, Kanagawa","Kanagawa, Japan",,https://www.instagram.com/gora_karaku/,Gora Spa AIOI,+81 460838505,,,https://www.gora-karaku.jp/spa/
"Grand Hotel Terme, Viale Guglielmo Marconi 7, Sirmione, Italy","Sirmione, Italy",https://www.facebook.com/grandhoteltermesirmione/,https://www.instagram.com/termedisirmionehotels/?hl=it,Grand Hotel Terme Thermal Medical SPA,+39 0309904922,,,http://www.termedisirmione.com/
"The St. Regis Doha, West Bay Doha, Qatar","Doha, Qatar",https://www.facebook.com/stregisdoha/,https://www.instagram.com/stregisdoha/?hl=en,Guerlain Spa at The St. Regis Doha,+974 44460000,,https://twitter.com/StRegisDoha,https://www.marriott.com/en-us/hotels/dohxr-the-st-regis-doha/overview/
"Hardenbergstrasse 28, Berlin, Germany","Berlin, Germany",https://www.facebook.com/pages/Waldorf-Astoria-Berlin/155370821220083,https://instagram.com/waldorfastoriaberlin,Guerlain Spa at Waldorf Astoria Berlin,+49 308140002233,,https://twitter.com/waldorfastoria?lang=en,https://waldorfastoria3.hilton.com/en/hotels/berlin/waldorf-astoria-berlin-BERWAWA/amenities/spas.html
"Waldorf Astoria Amsterdam, Herengracht, Amsterdam, Netherlands","Amsterdam, Netherlands",https://www.facebook.com/WaldorfAstoriaAmsterdam/,https://www.instagram.com/waldorfamsterdam/,Guerlain Spa at Waldorf Astoria Amsterdam,+31 207184625,,,http://www.guerlainspaamsterdam.com/
"192 Syndicate Road, Tallebudgera Valley, Queensland, Australia","Tallebudgera Valley, Australia",https://www.facebook.com/Gwinganna,https://www.instagram.com/gwinganna/,Gwinganna Lifestyle Retreat,+61 755895000,,,https://www.gwinganna.com/
"Thaba Tshwene Game Lodge, Portion 17 of the Farm Buisfontein, Hartebeesfontein","Hartebeesfontein, South Africa",https://www.facebook.com/ThabaTshwene,,Enviro Sanctuary Spa,+27 184312800,,,http://thabatshwene.co.za/enviro-sanctuary-spa/
"Rheinstraße 1, 76275 Ettlingen, Germany","Ettlingen, Germany",https://www.facebook.com/hotelerbprinz,https://www.instagram.com/hotelerbprinz/,Erbprinz Beauty Spa by Jacqueline Frank-Zepf,+49 7243 3220,,,https://www.erbprinz.de/en/erbprinz-beauty-spa
"Emily Resort, 9B Khmelnytskoho St, Lviv-Vynnyky, Ukraine","Vynnyky, Ukraine",https://www.facebook.com/emilyresort,https://www.instagram.com/emily_resort/,Emily Wellness & SPA,+38 0931133559,,,http://spa.emilyresort.com.ua/
"Via Aurelia Orientale, 369, Rapallo GE, Italy","Rapallo, Italy",https://www.facebook.com/grandhotelbristolresortandspa/,https://www.instagram.com/grandhotelbristol/,Erre Spa Bristol,+39 0185273313,,,https://www.rcollectionhotels.it/en/grand-hotel-bristol/erre-spa-relaxing-vacation-rapallo
"Radisson Blu Resort Cam Ranh, D12 Slot A, Nguyen Tat Thanh Highway, Cam Ranh, Vietnam","Cam Ranh, Vietnam",,,ESC spa at Radisson Blu Resort Cam Ranh,+84 2583993666 ,,,https://www.radissonhotels.com/en-us/hotels/radisson-blu-resort-cam-ranh
"Baha Mar, Suite 1, 1 Baha Mar Blvd, Nassau, Bahamas","Nassau, Bahamas",https://www.facebook.com/BahaMarResorts/,https://www.instagram.com/bahamarresorts/,ESPA at Baha Mar,+1 2427887800,,https://twitter.com/bahamarresorts?lang=en,http://bahamar.com/experiences/spa/
Ceresplatsen 1,"Göteborg, Sweden",https://www.facebook.com/hagabadetalvstranden,https://www.instagram.com/hagabadetalvstranden/,Hagabadet Älvstranden,+46 31600600,,,https://www.hagabadet.se/alvstranden/
Östra Larmgatan 4411 06 Göteborg,"Göteborg, Sweden",https://www.facebook.com/Hagabadetdrottningtorget/,https://www.instagram.com/hagabadetdrottningtorget/,Hagabadet Drottningtorget,+46 31600600,,,https://www.hagabadet.se/drottningtorget
"Södra Allégatan 3, Sweden","Göteborg, Sweden",https://www.facebook.com/Hagabadet,https://www.instagram.com/hagabadet/,Hagabadet Haga,+46 31600600,,,https://www.hagabadet.se/haga/
"111 Bloomfield St, Cleveland QLD, Australia","Cleveland , Australia",https://www.facebook.com/HarbourDaySpa/,https://www.instagram.com/harbourdayspa/?hl=en,Harbour Day Spa,+61 738212955,,https://twitter.com/harbourdayspa?lang=en,https://www.harbourdayspa.com.au/
"Yadah Castle, 1522 Sterkfontein Avenue, Doornkloof, Irene, Pretoria, South Africa","Pretoria, South Africa",https://www.facebook.com/HammamSpaTurkishBath,https://www.instagram.com/hammam_spa_sa/,Hammam Turkish Bath & Spa,+27 126709041 ,,https://twitter.com/YadahCastle,https://www.yadahcastle.com/
"The Westin Resort & Spa Ubud, Bali, Jl. Lod Tunduh, Singakerta, Kecamatan Ubud, Kabupaten Gianyar, Bali, Indonesia","Bali, Indonesia",https://www.facebook.com/thewestinubud,https://instagram.com/thewestinubud,Heavenly Spa by Westin™ Ubud,+62 3613018989,,,https://www.marriott.com/en-us/hotels/dpswr-the-westin-resort-and-spa-ubud-bali/experiences/heavenly-spa-by-westin-ubud/
"42 Amuri Avenue, Hanmer Springs, Canterbury, New Zealand","Hanmer Springs, New Zealand",https://www.facebook.com/hanmersprings/,https://www.instagram.com/hanmersprings/,Hanmer Springs Thermal Pools & Spa,+64 33150029,,,https://hanmersprings.co.nz/
"Via Piolet, 1, Breuil-Cervinia, Valtournenche, Aosta, Italy","Cervinia, Italy",https://www.facebook.com/HHermitageCervinia,https://www.instagram.com/hermitagecervinia/,HERMITAGE SPA,+390 166948998,,,https://hotelhermitage.com/en/spa.html
"The Galata Istanbul Hotel - MGallery,","Istanbul, Turkey",https://www.facebook.com/thegalataistanbul,https://www.instagram.com/tarihicesmehamami/,Historical Cesme Hammam,+212 3173400,,,https://www.thegalataistanbul.com/historical-turkish-bath-spa/
"Hormuz Grand Muscat, A Radisson Collection Hotel, ","Muscat, Sultanate of Oman",https://www.facebook.com/RadissonCollectionHotelHormuzGrandMuscat/,https://www.instagram.com/radissoncollectionmuscat/?hl=en,Hormuz Grand Spa,+968 24350500,,,https://www.radissonhotels.com/en-us/hotels/radisson-collection-muscat
"The Lodge Resort, ","Genarp, Sweden",https://www.facebook.com/thelodgeresort/?rf=222031994500104,https://www.instagram.com/thelodgeresort/?hl=en,Honulele Spa at The Lodge,+46 46248905,,,https://www.thelodge.se/en/english/honulele-spa/
"Jeddah Hilton Hotel, North Corniche Road, Ash Shati, Jeddah 21362","Jeddah  , Saudi Arabia",https://www.facebook.com/Hilton/,https://www.instagram.com/HiltonHotels/,Hilton Fitness Spa,+966 920003357,,,https://www.hilton.com/en/hotels/jedhihi-jeddah-hilton-hotel/spa/
"Elounda Lasithi, Greece","Elounda, Greece",https://www.facebook.com/RoyalMarminBay,https://www.instagram.com/royalmarminbay/,Euphoria Spa at Royal Marmin Bay Boutique & Art Hotel,+30 2841042251,,,
"Signiel Seoul, 300 Olympic-ro, Songpa-gu, Seoul","Seoul, South Korea",https://www.facebook.com/signielhotels,https://www.instagram.com/signielhotels/?hl=en,Evian Spa,+82 232131000,,,https://www.lottehotel.com/seoul-signiel/en/facilities/evian-spa.html
Le Méridien Maldives Resort & Spa,"Lhaviyani Atoll, Maldives",https://www.facebook.com/lemeridienmaldives,https://www.instagram.com/explore/locations/102257028220933/le-meridien-maldives-resort-spa/?hl=en,Explore Spa at Le Méridien Maldives Resort & Spa,+960 9300231,,,https://www.marriott.com/en-us/hotels/mlemd-le-meridien-maldives-resort-and-spa/experiences/
"Fairlawns Boutique Hotel & Spa, 1 Alma Road, Morningside Manor, Johannesburg, South Africa","Johannesburg, South Africa",https://www.facebook.com/FairlawnsBoutiqueHotel,https://www.instagram.com/fairlawnsboutiquehotel/,Fairlawns Spa,+27 118042540,,https://twitter.com/fairlawnsboutiq,https://fairlawns.co.za/
"Hong Kong Ocean Park Marriott Hotel, Ground Floor, 180 Wong Chuk Hang Road, Aberdeen, Hong Kong","Hong Kong, Hong Kong",https://www.facebook.com/harnnth/,https://www.instagram.com/harnnofficial/,HARNN Heritage Spa at Hong Kong Ocean Park Marriott Hotel,+852 35551800 ,,,https://www.marriott.com/hotels/hotel-information/fitness-spa-services/hkgop-hong-kong-ocean-park-marriott-hotel/
"Shop 20, Bagatelle Mall, Mauritius","Bagatelle, Mauritius",https://www.facebook.com/faheemhairstylist/,https://www.instagram.com/faheem_barakuth_/?hl=en,FAHEEM BARAKUTH CONCEPT SALON,+230 54451000,,,https://faheembarakuth.com/
"ANA InterContinental Beppu Resort & Spa, 499-18 Oaza, Kannawa, Beppu-shi, Ōita-Prefecture, Japan","Beppu, Japan",https://www.facebook.com/ANAInterContinentalBeppu,https://www.instagram.com/anaintercontinentalbeppu/?hl=en,HARNN Heritage Spa at InterContinental – ANA Beppu Resort & Spa,+81 977661000,,https://twitter.com/ANA_IC_Beppu,https://anaicbeppu.com/en/spa-onsen/
"InterContinental Phu Quoc Long Beach Resort, Bai Truong, Dương Tơ, Ward, tỉnh Kiên Giang, Phú Quốc, Vietnam","Phú Quốc, Vietnam",https://www.facebook.com/InterContinentalPhuQuoc,https://www.instagram.com/intercontinentalphuquoc/,HARNN Heritage Spa at InterContinental Phu Quoc Long Beach Resort,+84 2973978888,,,https://phuquoc.intercontinental.com/spa
"Fairmont Le Montreux Palace, Avenue Claude Nobs 2, Montreux, Switzerland","Montreux, Switzerland",https://www.facebook.com/FairmontLeMontreuxPalace/,https://www.instagram.com/fairmontlemontreuxpalace/,Fairmont Spa at Fairmont Le Montreux Palace,+41 219621700 ,,,https://www.fairmont.com/montreux/
"The Salil Hotel Riverside, 2052/7-9 Charoenkrung,  72/1 Alley, Wat Phrayakrai, Bangkholaem, Bangkok, Thailand","Bangkok, Thailand",https://www.facebook.com/harnnwellnessandhospitality,https://www.instagram.com/harnnwellnessandhospitality/?hl=en,HARNN Heritage Spa Riverside,+66 28448789,,,https://thesalilriverside.com/play/
"Brahman Hills Weddings, Events, Hotel & Spa, Old Curry's Post Road Mount West, Nottingham Road, South Africa","Nottingham Road, South Africa",http://www.facebook.com/brahmanhills,,Healing Earth Wellness at Brahman Hills,+27 332666965,,https://twitter.com/BrahmanHills,https://www.brahmanhills.co.za/spa
"Novotel Phuket Kata Avista, 4/1,4 Leam Sai Road, Karon District, Amphur Muang, 83100 Phuket","Phuket, Thailand",https://www.facebook.com/Novotelphuketkataavistaresortandspa/,https://www.instagram.com/novotelphuketkataavista/,InBalance Spa – Novotel Phuket Kata Avista,+66 76298888,,,https://www.novotelphuketresortkata.com/spa-in-phuket-kata-karon/inbalance-spa/
"Central Tower, Level 12M @CentralWorld, 4, 4/5 Rajdamri Road, Pathumwan, Bangkok, Thailand","Bangkok, Thailand",https://www.facebook.com/harnnth/,https://www.instagram.com/harnnofficial/,HARNN Heritage Spa Krungthep,+66 22525725,,,https://hhspa.harnn.com/
"185A Charles Street, Launceston, Tasmania, Australia","Tasmania, Australia",https://www.facebook.com/insparationsdayspa/,,InSPArations Day Spa,+61 363317888,,,https://www.insparations.com.au
"The St. Regis Dubai, The Palm Island Jumeirah, Dubai, United Arab Emirates","Dubai, United Arab Emirates",https://www.facebook.com/stregisdubaithepalm,https://www.instagram.com/stregisdubaithepalm/,"Iridium Spa at The St. Regis Dubai, The Palm",+971 42180140,,,https://www.marriott.com/en-us/hotels/dxbpx-the-st-regis-dubai-the-palm/experiences/
"44 Enoggera Terrace, Red Hill, Brisbane, Australia","Brisbane, Australia",https://www.facebook.com/intherapy,https://www.instagram.com/intherapy/,intherapy Ethical Beauty,+61 733695000,,,https://intherapy.com.au/
"Gennadi Grand Resort, Rhodes, Greece","Rhodes, Greece",https://www.facebook.com/gennadigrandresort/,https://www.instagram.com/gennadigrandresort/,Kozeen Spas,+30 6945634548 ,,https://twitter.com/gennadigrandres?lang=en,https://www.gennadigrandresort.com/explore/spa-wellness-rhodes
"St. Regis Hotel Osaka, 3-6-12 Honmachi, Chuo Ward, Osaka, Japan","Osaka, Japan",https://www.facebook.com/stregisosaka/,https://www.instagram.com/stregisosaka/?hl=en,IRIDIUM featuring SOTHYS,+81 676390672,,https://twitter.com/stregishotels?ref_src=twsrc%5Egoogle%7Ctwcamp%5Eserp%7Ctwgr%5Eauthor,https://www.marriott.com/hotels/hotel-information/fitness-spa-services/details/osaxr-the-st-regis-osaka/6034324/
"Rua Nações Unidas, R. da Bavária, 533, Gramado","Gramado, Brazil",https://www.facebook.com/kuroteloficial/,https://www.instagram.com/kuroteloficial/,Kurotel – Medical Spa,+55 5432959300,,,https://www.kurotel.com.br/
"Minatoku, Akasaka 6-16-4 Akasaka GD Building, Tokyo, Japan","Tokyo, Japan",https://www.facebook.com/pg/lapidemtokyospa,https://www.instagram.com/lapidem_tokyo/,LAPIDEM TOKYO SPA,+81 364265231,https://www.pinterest.jp/gazzaradesign/,,https://www.lapidem.com/
"YON-KA Building 3F, 3-9-8 Kita Aoyama, Minato-ku, TOKYO, Japan","Tokyo, Japan",https://m.facebook.com/YonKaParisJAPAN/,https://www.instagram.com/yonkafr/?hl=en,L’espace YON-KA Omotesando,+81 354693447,,,https://lespaceyonka.jp/
,India,,,Lake View Spa,7894561230,,,
"Jareed Hotel, Prince Turki Bin Abdulaziz Road, Hittin, Exit 2, 933, Riyadh, Saudi Arabia","Riyadh, Saudi Arabia",https://www.facebook.com/Jareed-Hotels-105895985223268,https://www.instagram.com/jareedhotels/?hl=en,Jimam SPA,+966 11 400 4141,,https://twitter.com/jareedhotels,https://jareedhotels.com/spa-wellness/
"75 Gilbertson Road, Kardinya, Perth, Australia","Perth, Australia",https://www.facebook.com/lebeaudayspa,https://www.instagram.com/lebeauclinicandspa/,Le Beau Clinic and Spa,+61 893311122,,,https://www.day-spa-perth.com.au/
"Jl. Dewi Sri No.88E, Legian, Kecamatan Kuta Selatan, Kabupaten Badung, Bali, Indonesia","Bali, Indonesia",https://www.facebook.com/luminaaestheticsclinic,https://www.instagram.com/luminaaesthetics/?hl=en,Lumina Aesthetics,+62 81228888837,,,https://luminaaesthetics.com/
"101/28 Moo 1, Bophut, Koh Samui, Surat Thani,Thailand","Koh Samui, Thailand",https://www.facebook.com/HansarSamui/,https://www.instagram.com/hansarsamui/?hl=en,LUXSA Spa,+66 77245511,,https://mobile.twitter.com/hansarsamui,https://www.hansarsamui.com/Feel
"Lyttos Beach Hotel, Hersonissos, Crete, Greece","Crete, Greece",https://www.facebook.com/lyttosbeach/,https://www.instagram.com/lyttosbeach/?hl=en,LYTTOS Spa by Aegeo Spas at Lyttos Beach,+30 2897025245,,,https://www.lyttosbeach.gr
"Crowne Plaza Hotel District Zone 61, West Bay","Doha, Qatar",https://www.facebook.com/Luxury-Spa-Fitness-1379139982390740/,https://www.instagram.com/luxuryspafitness/,Luxury Spa & Fitness,+974 50021600,,https://twitter.com/luxuryspafitnes/,http://www.luxuryspafitness.com
"Alwadi Hotel Doha, Corner of Wadi Msheireb and Jassim bin Mohammed Street, Doha, Qatar","Doha, Qatar",https://www.facebook.com/alwadihoteldoha,https://www.instagram.com/alwadi.hotel.doha/,M|Spa,+974 40099999,,https://twitter.com/AlwadiHotelDoha,https://www.accorhotels.com/gb/hotel-8395-alwadi-hotel-doha-mgallery/index.shtml
"2/169 Howick Street, Bathurst, Australia","Bathurst, Australia",https://www.facebook.com/macquariemedspa,https://www.instagram.com/macquariemedispa/,Macquarie Medi Spa,+61 263322062,,,https://macquariemedispa.online/
"The Calile Hotel Brisbane, Level 1, 48 James Street, Fortitude Valley, Brisbane, Australia","Brisbane, Australia",https://www.facebook.com/kailomedispa/,http://instagram.com/kailomedispa_,KAILO Wellness Medispa,+61 732523225,,,https://www.kailo.com.au/
"SPA-HOTEL Jagdhof, Scheibe 44, Neustift im Stubaital, Austria","Neustift im Stubaital, Austria",https://www.facebook.com/hoteljagdhof.spa,https://www.instagram.com/jagdhofspahotel/,jSPA at SPA-Hotel Jagdhof,+43 52262666650,,https://twitter.com/JagdhofTyrol,https://www.hotel-jagdhof.at/en/
"The Vines Resort, Verdelho Drive, The Vines, Perth, Australia","Perth, Australia",https://www.facebook.com/keishispa/?ref=br_rs,https://www.instagram.com/keishi.spa/,Keishi Spa Novotel Vines Resort,+61 0892970737,,,https://www.vines.com.au/wellness/keishi-spa
"Kairali Ayurvedic Health Resort Pvt Ltd, D-130, Ambedkar Colony, Mehrauli, New Delhi, India","New Delhi, India",https://www.facebook.com/Kairali-The-Ayurvedic-Healing-Village-228852057130878/,https://www.instagram.com/kairali_the_healing_village/,Kairali Ayurvedic Healing Village,+91 8826021116,,https://twitter.com/kairaligroup,http://www.ktahv.com/
"Vathi, 72100, Crete, Agios Nikolaos, Greece","Crete, Greece",https://www.facebook.com/Daios.Cove.Resort,https://www.instagram.com/daios_cove/,Kēpos by Goco,+30 2841888019,https://gr.pinterest.com/daioscovecrete/,,https://www.daioscovecrete.com/wellness/kepos-by-goco
"Karma Kandara Bali, Jalan Villa Kandara, Banjar Wijaya Kusuma, Ungasan, Bali, Indonesia ","Bali, Indonesia",https://www.facebook.com/karmaspas/,https://www.instagram.com/karmaspas/?hl=en,Karma Spa,+62 3618482200,,https://twitter.com/ExperienceKarma,https://karmagroup.com/karma-spa/karma-spa-kandara-menu/
"The Westin Miyako Kyoto, Sanjo, Keage, Higashiyama Ward, Kyoto, Japan","Kyoto, Japan",https://www.facebook.com/westinmiyako.kyoto/,https://www.instagram.com/westinmiyakokyoto/?hl=en,Le Jardin Sothys at The Westin Miyako Kyoto,+81 757619587,,,https://www.marriott.com/hotels/hotel-reviews/ukywi-the-westin-miyako-kyoto/
"Le Domaine du Mas de Pierre *****, Saint-Paul de Vence, France","Saint-Paul de Vence, France",https://www.facebook.com/MasDePierre/photos/?ref=page_internal,https://www.instagram.com/lemasdepierre/,Le SPA at Domaine du Mas de Pierre,+33 493590037,,,https://www.lemasdepierre.com/en/espace-bien-etre-le-spa/
"Domaine De Verchant, 1 Boulevard Philippe Lamour, Castelnau Le Lez, France","Castelnau Le Lez, France",https://www.facebook.com/DomainedeVerchant,https://www.instagram.com/domainedeverchant_official/,Le Spa Verchant,+33 467072626 ,,https://twitter.com/deverchant,https://www.domainedeverchant.com/en/spa-hotel-south-france
"Premier Luxury Mountain Resort 11, Karamanitza Str. 2770, Bansko, Bulgaria","Bansko, Bulgaria",https://www.facebook.com/premierbanskohotel,https://www.instagram.com/premiermountainresort_bansko/?hl=en,Le Spa by Aegeo Spas,+359 74950500,,https://twitter.com/PremierBansko,https://www.banskohotelpremier.com
"Lefay Resort & SPA Lago di Garda, via Angelo Feltrinelli 136, Gargnano, Italy","Gargnano, Italy",https://www.facebook.com/LefayResorts,http://instagram.com/lefayresorts/,Lefay SPA Lago di Garda,+39 0365 241802,,https://twitter.com/#!/LefayResorts,https://lagodigarda.lefayresorts.com/en/lake-garda-spa-and-resort
"Via Alpe di Grual, 16, Pinzolo TN, Italy","Pinzolo, Italy",https://www.facebook.com/LefayResorts,https://instagram.com/lefayresorts/,Lefay SPA Dolomiti,+39 0465768800,,https://twitter.com/#!/LefayResorts,https://dolomiti.lefayresorts.com/en/luxury-spa-dolomites-book-luxus-spa-dolomites
"Mövenpick Hotel Qassim, King Fahd Road, ","Buraidah, Saudi Arabia",https://www.facebook.com/movenpickqassim,https://www.instagram.com/movenpickqassim/,Life Spa,+966 920000375,,https://twitter.com/MovenpickHotels,https://www.movenpick.com/en/middle-east/saudi-arabia/qassim/hotel-qassim/overview/?utm_source=google&utm_medium=local&utm_campaign=Glocal+qassim
"Chalet RoyAlp Hotel & Spa, Domaine de Rochegrise 23, Villars-sur-Ollon, Switzerland","Villars-sur-Ollon, Switzerland",https://www.facebook.com/ChaletRoyAlpHotelSpa/,https://www.instagram.com/chaletroyalp/,Le Spa by RoyAlp,+41 244959007,,https://twitter.com/chaletroyalp?lang=en,https://www.royalp.ch/spa-bien-etre
"Room 1601 & 02B, Century Square, 1-13 D'Aguilar Street, Central, Hong Kong","Hong Kong, China",https://www.facebook.com/LisseHongKong,,LISSE,+852 21169888,,,http://www.lisse.com.hk/en/index/main/
"Grand Hôtel Thalasso & Spa Loremar, 43 Boulevard Thiers, Saint-Jean-de-Luz, France","Saint-Jean-de-Luz, France",https://www.facebook.com/luzgrandhotel/,https://www.instagram.com/luzgrandhotel/,Loreamar Thalasso Spa,+33 559263536,,,http://luzgrandhotel.fr/thalassospa/loreamar/
"9 Ernlea Tce, Cashmere, Christchurch, New Zealand","Christchurch, New Zealand",https://www.facebook.com/LotusDaySpaNZ ,https://www.instagram.com/lotusdayspa_nz/,Lotus Day Spa,+64 39805400,,,https://www.lotusspa.co.nz/
109/166 Cashel Street,"Christchurch, New Zealand",https://www.facebook.com/Lovoirnz/,https://www.instagram.com/lovoir/?hl=en,Lovoir,+64 34231166,,https://twitter.com/LovoirBeauty,https://www.lovoirbeauty.com/
"Pestana Sintra Golf, Quinta da Beloura ","Sintra, Portugal",,,Magic Spa Pestana Sintra Golf Resort,+351 210424353,,,https://www.magicspa-store.com/pestana-sintra-golf
"Pestana Casino Park, Rùa Imperatriz D Amelia, Funchal, Portugal","Funchal, Portugal",https://www.facebook.com/PestanaCasinoPark/,https://www.secure.instagram.com/pestanahotels/,Magic Spa Pestana Casino Park,+351 291209109,,,https://www.magicspa-store.com/pestana-casino-park
"Pestana Palace Lisboa, Rua Jau, nº 54, 1300-314, Lisbon","Lisbon, Portugal",https://www.facebook.com/Magicspas,https://www.instagram.com/magicspabypestana/,Magic Spa Pestana Palace Lisboa,+351 210416815,,,https://www.magicspa-store.com/pestana-palace-lisboa
"Tofuya Resort & Spa Izu, 98 Yoshina, Izu City, Shizuoka Prefecture, Japan","Izu, Japan",https://www.facebook.com/tdsosaka/,,mahora Spa,+81 558851000,,,http://www.tfyjapan.com/spa/
"7 Breda Street, Oranjezicht, Cape Town, 8001","Cape Town, South Africa",https://www.facebook.com/maithaiwellness/,https://www.instagram.com/maithaiwellness_spa/,Mai Thai Wellness Spa,'+27 21 418 0713,,,https://www.maithaiwellness.com/
Azulik Tulum,"Tulum, Mexico",https://www.facebook.com/Azulikofficial/,https://www.instagram.com/azulik/,MAYA SPA,+52 9849800640,,,https://www.azulik.com/
"Islamabad Serena Hotel, Khayaban-e-Suhrwardy, Opposite Convention Centre, Islamabad, Pakistan","Islamabad, Pakistan",https://www.facebook.com/IslamabadSerenaHotel,https://www.instagram.com/serenahotelsofficial/,Maisha Spa & Health Club at Islamabad Serena Hotel,+92 512005249,,https://twitter.com/serena_hotels,https://www.serenahotels.com/serenaislamabad/en/default.html
"Fischerndorf 222, Altaussee, Austria","Altaussee, Austria",https://www.facebook.com/mayrlife.altaussee,https://www.instagram.com/mayrlife_official/,MAYRLIFE Medical Health Resort Altaussee,+43 36227450,,,https://www.mayrlife.com/en
"Claris Hotel & Spa 5*GL, Pau Claris 150, Barcelona, Spain","Barcelona, Spain",https://www.facebook.com/mayansecretspa/?rc=p,https://www.instagram.com/mayanspas,Mayan Secret Spa,+34 934452585,,https://twitter.com/mayansecretspa?lang=en,https://www.mayanspas.com/en/p/brand/mayan-secret-spa
"El Palace Hotel*****GL Barcelona, Gran Via de les Corts 668, Catalanes, Barcelona, Spain","Barcelona, Spain",https://www.facebook.com/elpalacebarcelona/,https://www.instagram.com/mayanspas/,Mayan Luxury Spa,+34 933020744,,https://twitter.com/MayanLuxurySpa,https://www.mayanspas.com/en
"Spa & Resort Bachmair Weissach, Wiesseerstr. 1, Weissach, Germany","Weissach, Germany",https://www.facebook.com/hotelbachmairweissach/,https://www.instagram.com/explore/locations/217878580/hotel-bachmair-weissach/,MIZU ONSEN SPA,+49 8022278570,,https://twitter.com/bachmairweiss?lang=en,https://www.bachmair-weissach.com/
"Jl. Raya Cebok, Kedisan, Kec. Tegallalang,","Bali, Indonesia",https://www.facebook.com/Kclububud/,https://www.instagram.com/kclububud/,MEKAR UBUD JUNGLE SPA BALI,+628113933111,,,http://www.kclububud.com
"Conrad Tokyo, 1-9-1 Higashi-Shinbashi, Minato-Ku, Tokyo, Japan","Tokyo, Japan",https://www.facebook.com/conradtokyo/,https://www.instagram.com/conrad_tokyo/?hl=en,Mizuki Spa & Fitness,+81 363888620,,https://twitter.com/conradtokyo?ref_src=twsrc%5Egoogle%7Ctwcamp%5Eserp%7Ctwgr%5Eauthor,https://www.hilton.com/en/hotels/tyocici-conrad-tokyo/spa/
"Intercontinental Hotel Osaka, 3-60 Ofuka-cho, Kita-ku, Osaka-shi, Osaka 530-0011","Osaka, Japan",https://www.facebook.com/MEGURISPA,https://www.instagram.com/megurispawellness/,MEGURI SPA & WELLNESS,+81 663743503,,,https://megurispa.jp/
"Cora Cora Maldives, Raa Maamigili, Raa Atoll, Maldives","Raa Atoll, Maldives",https://www.facebook.com/coracoramaldivesresort,https://www.instagram.com/coracoramaldives/,MOKSHA® Spa & Wellbeing Center,+960 6584888,,,https://www.coracoraresorts.com/
"49 Salisbury Street, Christchurch, New Zealand","Christchurch, New Zealand",https://www.facebook.com/MossSpaNZ,https://www.instagram.com/moss.spa/,Moss Spa,+64 39307002,,,https://www.mossspa.co.nz/
"Hotel Schloss Mönchstein***** Salzburg, Mönchsberg Park 26, Salzburg, Austria","Salzburg, Austria",https://www.facebook.com/schlossmoenchstein,https://www.instagram.com/schlossmoenchstein/,Mönchstein SPA,+43 6628485550,,,https://www.monchstein.at/en/spa/
"Crystal House Suite Hotel & SPA,","Kaliningrad, Russia",https://m.facebook.com/Morion-Spa-106138581303383/,https://www.instagram.com/morionspa/,Morion Spa,+7 4012692601,,,https://crystalhousehotel.ru/en/spa/morion-spa.html
"9/99 Moo 5, Bophut, Thongson Bay Koh Samui, Suratthani 84320, Thailand","Suratthani, Thailand",https://www.facebook.com/melati.resort,https://www.instagram.com/melatibeachresort/,Melati Spa at Melati Beach Resort and Spa,+66 29445414 ,,https://twitter.com/Melati_Resort,https://www.melatiresort.com
"Floor 38, Kipco Tower, Khalid inn Waleed Street, Sharq, Safat, Kuwait","Kuwait City, Kuwait",https://www.facebook.com/mentime.ku/,https://www.instagram.com/p/_2RIxnOXL6/?hl=en,MEN TIME,+965 22943277,,,https://www.mentime-ku.com/
"83b Parklands Ave, Bell Block, New Plymouth, New Zealand","New Plymouth, New Zealand",https://www.facebook.com/Mihisplace/,,Mihi’s Place,0273237534,,,
"Grand Hotel Millennium Sofia, 89B Vitosha Blvd., Sofia, Bulgaria","Sofia, Bulgaria",https://www.facebook.com/MillenniumSpaSofia,https://www.instagram.com/millenniumspa/,Millennium Spa & Wellness Centre,+359 24457050,,,https://grandhotelmillenniumsofia.bg/millennium-spa-and-wellness-centre/
"Minthis Resort, Tsada, Paphos, Cyprus  ","Paphos, Cyprus",https://www.facebook.com/MINTHISRESORT,https://www.instagram.com/minthisresort/,Minthis Spa,+357 26842299,,,https://www.minthisresort.com/wellness/
"Marijani Beach Resort & Spa, Beach Road, Pwani Mchangani, Tanzania","Pwani Mchangani, Tanzania",https://www.facebook.com/Marijani.Zanzibar,https://www.instagram.com/marijani.zanzibar/,Marijani,+255 778088433,,,https://marijanihotel.co.tz/healing-earth-spa
"1/285 Little Collins Street, Melbourne, Victoria, Australia","Melbourne, Australia",https://www.facebook.com/missfoxmelb/,,MISS FOX Melbourne,+61 390280350,https://za.pinterest.com/missfoxmelb/_created/,https://twitter.com/missfoxmelb,https://www.missfox.com.au/
"Maritim Resort & Spa, Turtle Bay, Balaclava, Mauritius","Balaclava, Mauritius",https://www.facebook.com/maritimtropicalflowerspa/,https://www.instagram.com/maritimresortandspamauritius/,Maritim Tropical Flower Spa,+230 2041000,,,http://www.maritimresortandspa.mu/en/resort/spa/maritim-tropical-flower-spa
"1513 State Highway 7, Lewis Pass, ","Maruia Springs, New Zealand",https://www.facebook.com/maruiahotsprings/,https://www.instagram.com/maruiahotsprings/,Maruia Hot Springs,+64 21999946,,,http://www.maruiahotsprings.nz
"LOTTE HOTEL MOSCOW, Novinskiy Bul'var, дом 8, стр. 2, Moscow, Russia","Moscow, Russia",https://www.facebook.com/LOTTEHOTELMOSCOW,https://www.instagram.com/lottehotel_moscow/,Mandara Spa at LOTTE HOTEL MOSCOW,+7 4952870505,,https://twitter.com/LotteMoscow,https://www.lottehotel.com/moscow-hotel/ru/facilities/mandara-spa.html
"Al Mashreq Boutique Hotel, Prince Turki Ibn Abdulaziz Al Awwal Road, Riyadh, Saudi Arabia","Riyadh, Saudi Arabia",https://www.facebook.com/almashreqhotel,https://www.instagram.com/almashreqboutiquehotel/,Mashreq Spa,+966 112834777,,https://twitter.com/AlMashreqHotel,https://www.almashreq.sa/en/#!/recreation
"Mason, 285 Moo 3 Sukhumvit Road, Na Jomtien, Sattahip, Chonburi, Thailand","Pattaya, Thailand",https://www.facebook.com/MASON-PATTAYA-478810812608343,https://www.instagram.com/masonpattaya/,MASON SPA,+66 38194699,,,http://www.masonpattaya.com/facilities/mason-spa-fitness/
"Hilton Munich Airport, Terminalstrasse Mitte 20, Munich, Germany","Munich, Germany",https://www.facebook.com/HiltonMunichAirport,https://www.instagram.com/hiltonmunichairport/,Mountain Hub Spa,+49 8997822900,,,https://mountainhub.de/en/spa/
"Almanity Hoi An Wellness Resort, 326 Ly Thuong Kiet, Tan An Ward, Hoi An City, Quang Nam Province, Vietnam","Hoi An City, Vietnam",https://facebook.com/almanityhoian/,,My Chi Wellness & Spa,+84 2353666888,,https://twitter.com/almanityhoian,https://almanityhoian.com/en/
"Casale Panayiotis,","Kalopanayiotis, Cyprus",,,Myrianthousa Spa,99617059,,,https://www.casalepanayiotis.com/spa
" 56 Cairnhill Road, Singapore","Singapore, Singapore",https://www.facebook.com/mycozyroom/,https://www.instagram.com/mycozyroomspa/,My Cozy Room Facial Spa,+65 67320030,,,https://mycozyroom.com.sg/
"Miraggio Thermal Spa Resort,","Halkidiki, Greece",https://www.facebook.com/MiraggioResort/,https://www.instagram.com/miraggiothermalspa/?hl=en,Myrthia Thermal Spa,+30 2374440000,,,https://www.miraggio.gr/en/myrthia-thermal-spa
"dusitD2 Davao, Stella Hizon Reyes Drive, Bo Pampanga, Davao City, Philippines","Davao City, Philippines",https://www.facebook.com/dusitD2davao,https://www.instagram.com/dusitd2davao/,Namm Spa,+63 822727500,,,https://www.dusit.com/dusitd2-davao/spa/
"Al Quoz 3, Warehouse 1, Jebel Ali Building, Dubai, United Arab Emirates","Dubai, United Arab Emirates",https://www.facebook.com/NBarUAE,https://www.instagram.com/nbar.uae/?hl=en,N.Bar,+971 567268893,,https://twitter.com/nbardubai?lang=en,https://www.thegroomingcompany.com/brand/n-bar/
"Şht. Mustafa İlevi Street, Natura Cyprus, Alsancak, Kyrenia, Cyprus","Kyrenia, Cyprus",https://www.facebook.com/naturaspawellness/,https://www.instagram.com/naturaspacyprus/,Natura SPA & Wellness,+90 5338763030,,,https://www.naturaspacyprus.com/tr
"Grand Hotel Vanvitelli, Viale Carlo III, Caserta (CE), Italy","Caserta, Italy",https://www.facebook.com/grandhotelvanvitelli,https://www.instagram.com/grandhotelvanvitelli/,Naboo Spa,+39 823217910,,,https://www.grandhotelvanvitelli.it/index.php?/en/spa
"TUI BLUE Side, Evrenseki Mevkii, Side, Antalya, Turkey","Side, Turkey",https://www.facebook.com/EmirHotels,https://www.instagram.com/emirhotels/,NAR SPA by THE CİEL,+90 5425341718,,,http://www.emirhotels.com/
"105 Glebe Point Rd, Glebe, New South Wales, Australia","Sydney, Australia",https://www.facebook.com/naturesenergysydney/,https://www.instagram.com/naturesenergysydney/?hl=en,Nature’s Energy Day Spa & Wellness,+61 295555533 ,,,http://www.naturesenergy.com.au/
"Kellicar Road, Macarthur Square, Campbelltown, Australia","Campbelltown, Australia",https://www.facebook.com/nectardayspa.com.au/,https://www.instagram.com/nectardayspa/,Nectar Day Spa,+61 246286280,,,https://nectardayspa.com.au/
"Cairo Festival City Mall, Unit 1-160 Village, Egypt","Cairo, Egypt",https://www.facebook.com/nevspawellness/,https://www.instagram.com/nev_spa_wellness/?hl=en,NEV Spa & Wellness,+20 1091000503,,https://twitter.com/nev_spa,https://nevspawellness.com/
"Villa 10, Anya Resort Tagaytay, Buenavista Hills Road, Barangay Mag-Asawang Ilat, Tagaytay City, Philippines","Tagaytay City, Philippines",https://www.facebook.com/niyamawellnessph,https://www.instagram.com/niyamawellnessph/,Niyama Wellness Center,+63 9088189418,,,https://www.anyaresorts.com/niyama-wellness-center/
"Grand Hyatt Al Khobar Hotel and Residences, 3266 Custodian of The Two Holy Mosques Rd, Olaya, Al Khobar, Saudi Arabia","Al Khobar, Saudi Arabia",https://www.facebook.com/GrandHyattAlKhobar,https://www.instagram.com/grandhyattalkhobar/,Nirvana Spa and Fitness Center,+966 133311234,,https://twitter.com/Hyatt_AlKhobar,https://www.hyatt.com/en-US/hotel/saudi-arabia/grand-hyatt-al-khobar/dmmgh
"21 Cameron Road, Ikoyi, Lagos, Nigeria","Lagos, Nigeria",https://www.facebook.com/oasismedspang/,https://www.instagram.com/oasismedspang/,Oasis Med Spa,+234 8180822222,,,http://oasismedspang.com/
Nikki Beach Resort & Spa Dubai,"Pearl Jumeirah, United Arab Emirates",https://www.facebook.com/nikkibeachdubai/,https://www.instagram.com/nikkibeachdubai/,Nikki Spa,+971 4376 6150,,,https://dubai.nikkibeach.com/spa-leisure/
"Prolongación Bonampak S/N Mz 1 Lote, Continental Zone Isla Mujeres, Cancún, Quintana Roo, Mexico","Cancún, Mexico",https://www.facebook.com/NUUPSpaPlayaMujeres/,https://www.instagram.com/nuupspaplayamujeres/?hl=en,NUUP Spa at ATELIER Playa Mujeres,+52 9985004800 ,,,https://atelierdehoteles.com.mx/atelier-estudio-playa-mujeres-nuup-spa
"Pullman Dakar Teranga,10 Rue Colbert, Place de l'Indépendance, Dakar, Senegal","Dakar, Senegal",https://www.facebook.com/PullmanDakar/,https://www.instagram.com/pullmandakarteranga/,Pullman Spa Dakar,+221 338892210,,https://twitter.com/PullmanDakar,https://all.accor.com/hotel/0563/index.en.shtml
"Hyatt Regency Cairo West,","Cairo, Egypt",https://www.facebook.com/hyattregencycairowest,https://www.instagram.com/hyattregencycairowest/,PURE Spa,+20 235369500,,,https://www.hyatt.com/en-US/hotel/egypt/hyatt-regency-cairo-west/hberc?src=corp_lclb_gmb_seo_hberc
"The Royal Senses, Curio Collection by Hilton","Crete, Greece",,,Pure Senses Spa,+30 2834055002,,,http://www.hilton.com/en/hotels/herrsqq-the-royal-senses-resort-and-spa-crete
"Swissôtel Resort Bodrum Beach,","Bodrum, Turkey",https://www.facebook.com/swissotelbodrum/,https://www.instagram.com/swissotelresortbodrumbeach/?hl=en,Pürovel Spa & Sport at Swissôtel Resort Bodrum Beach,+90 2523113333,,,https://www.swissotel.com/hotels/bodrum-beach/spa-fitness/
"Phuket Marriott Resort and Spa, Nai Yang Beach, 92, 92/1 Moo 3, Phuket, Thailand","Phuket, Thailand",https://www.facebook.com/PhuketMarriottNaiYang/,https://www.instagram.com/phuketmarriott_naiyang/?hl=en,"Quan Spa at Phuket Marriott Resort and Spa, Nai Yang Beach",+66 76625555,,,https://www.marriott.com/hotels/travel/hktnb-phuket-marriott-resort-and-spa-nai-yang-beach/
"Swissôtel Büyük Efes Izmir, Alsancak, Gazi Osman Paşa Blv. No: 1, Konak/İzmir, Türkiye","İzmir, Turkey",https://www.facebook.com/SwissotelBuyukEfes/,https://www.instagram.com/swissotelizmir/?hl=en,"Pürovel Spa & Sport at Swissôtel Büyük Efes, Izmir",+90 232414592021,,,https://www.swissotel.com/hotels/izmir/spa-fitness/
"80 Houndsditch, London, United Kingdom","London, United Kingdom",https://www.facebook.com/panpacificlondon/,https://www.instagram.com/panpacificlondon/?hl=en,Pan Pacific London Wellbeing Floor and Spa,+44 2071186888,,,https://www.panpacific.com/en/hotels-and-resorts/pp-london/wellbeing.html
"Penha Longa Resort, Estrada Da Lagoa Azul, Linhó Sintra, Portugal","Sintra, Portugal",https://www.facebook.com/PenhaLongaHotel,https://www.instagram.com/penhalongaresort/,Penha Longa Spa,+351 219239650,,,https://www.penhalonga.com/en/spa/
"Avista Grande Phuket Karon - MGallery, 38 Soi Luang Phor Chuan Soi 1, Karon District, Amphur Muang, Phuket, Thailand","Phuket, Thailand",https://www.facebook.com/Avista-Grande-Phuket-Karon-MGallery-by-Sofitel-111118929519096/,https://www.instagram.com/avistagrandephuket,Pearl Spa at Avista Grande Phuket Karon – MGallery,+66 76302660,,,https://www.avista-grande-phuket-karon.com/wellness-resort/pearl-luxury-spa/
"Springs lane, Fingal, Mornington Peninsula, Victoria, Australia","Melbourne, Australia",https://www.facebook.com/Peninsulahotsprings/,https://www.instagram.com/peninsulahotsprings/,Peninsula Hot Springs,+61 359508777,,,https://www.peninsulahotsprings.com
"1000 Hinemoa Street, Rotorua, New Zealand","Rotorua, New Zealand",https://web.facebook.com/PolynesianSpa,https://www.instagram.com/polynesianspa/?hl=en,Polynesian Spa,+64 73481328,,,https://www.polynesianspa.co.nz/
"Kimpton Kitalay Samui, ","Koh Samui, Thailand",https://www.facebook.com/kimptonsamui/,https://www.instagram.com/kimptonkitalaysamui/,Pimãanda by HARNN at Kimpton Kitalay Samui,+66 77951999,,https://twitter.com/Kimpton,https://www.kimptonkitalaysamui.com/facilities/samui-spa-and-massage/
"Sahl Hasheesh Road, Hurghada, Red Sea, Egypt","Hurghada / ElGhouna, Egypt",https://www.facebook.com/albatros.citadel/,https://www.instagram.com/pickalbatros/,Royal Spa,,,,https://www.pickalbatros.com/hotels-resorts/albatros-citadel-sahl-hasheesh/
"Rockliffe Hall, Hurworth-on-Tees, Darlington, United Kingdom","Darlington, United Kingdom",https://www.facebook.com/rockliffehall/,https://www.instagram.com/rockliffe_hall/,Rockliffe Hall,+44 1325729999,,https://twitter.com/RockliffeHall,https://www.rockliffehall.com/spa-wellness/
Roxana Pourali,"Sydney, Australia",https://www.facebook.com/RoxanaPouraliCBT,https://instagram.com/roxanapourali?igshid=YmMyMTA2M2Y=,Roxana Pourali Celebrity Beauty Therapists,+61481952813,,,https://www.roxanapourali.com.au
"571 Cardero Street, Vancouver, Canada","Vancouver, Canada",https://www.facebook.com/SabaiThai,https://www.instagram.com/sabaithaispa/,Sabai Thai Spa,+1 6045686227,,https://twitter.com/sabaithai,https://www.thaispa.ca/
"1 Soi Rat U-Thit 200 Pi 2, Patong, Kathu, Phuket, Thailand ","Phuket, Thailand",https://www.facebook.com/grandmercurephuketpatong/?ref=page_internal,https://www.instagram.com/grandmercurephuketpatong/?hl=en,Ryn Spa at Grand Mercure Phuket Patong Resort & Villas,+66 629642515,,https://twitter.com/grandmercurepkt?lang=en,http://grandmercurephuketpatong.com/
"Seminole Hard Rock Hotel & Casino Hollywood, 1 Seminole Way","Hollywood, Florida, United States (US)",https://www.facebook.com/seminolehardrockhollywood/,https://www.instagram.com/hardrockholly/,Rock Spa® & Salon at Seminole Hard Rock Hotel & Casino Hollywood,+1 9547975899,,,https://www.seminolehardrockhollywood.com/amenities/rock-spa-and-salon
"Sea Pearl Beach Resort & Spa, Jaliapalong, Inani, Ukhia, Cox's Bazar, Bangladesh","Cox's Bazar, Bangladesh",https://www.facebook.com/seapearlcoxsbazar/?ref=br_rs,,Samayaa World Spa,+880 1844016001,,https://twitter.com/seapearlcox,https://www.seapearlcoxsbazar.com/
"Hillside Beach Club, Belen Cad. No:132 Kalemya Koyu, Fethiye/Muğla, Turkey","Fethiye, Turkey",https://www.facebook.com/hillsidebeachclub,https://www.instagram.com/hillsidebeachclub,Sanda Spa,+90 2526148360,,https://twitter.com/HillsideFethiye,https://hillsidebeachclub.com/en/spa-wellness
"isola S. clemente, 1/1, 30124 Venezia VE, Italy","Venice, Italy",,,San Clemente Palace Kempinski Venice – The Merchant of Venice Spa,+39 0414750111,,,https://www.kempinski.com/en/san-clemente-palace-kempinski?utm_medium=organic&utm_source=google&utm_campaign=KIVCE2&utm_content=gmb&source=S308962248
"7/1, Central Pinklao, 1st floor, Borommaratchachonnani Rd, Arun Amarin, Bangkok Noi, Bangkok, Thailand","Bangkok, Thailand",https://www.facebook.com/harnnwellnessandhospitality,https://www.instagram.com/harnnwellnessandhospitality/,SCape by HARNN,+66 21156009,,,https://www.harnn.com/page/scape-by-harnn/
"PORTION 1069,BOOTLESS BAY, TAHIRA, CENTRAL, Port Moresby, Papua New Guinea","Port Moresby, Papua New Guinea",https://www.facebook.com/Loloataislandresort,https://www.instagram.com/explore/locations/560755282/loloata-island-resort-png,Sea Salt Spa,+675 71088000,,https://twitter.com/loloatapng,https://www.loloataislandresort.com/
Riyadh Diplomatic Quarter - Marriott Executive Apartments,"Riyadh, Saudi Arabia",https://m.facebook.com/MarriottExecutiveApartmentsRiyadhDQ/,https://www.instagram.com/marriottriyadhdq/?hl=en,Saray Spa,+966 118353000,,https://twitter.com/mhriyadhdq,https://www.marriott.com/en-us/hotels/ruhed-riyadh-diplomatic-quarter-marriott-executive-apartments/experiences/
"Hua Hin Marriott Resort & Spa, 107/1 Phetkasem Road, Hua Hin, Thailand","Hua Hin, Thailand",https://www.facebook.com/Huahinmarriott/,https://www.instagram.com/huahinmarriott/,"Quan Spa, Hua Hin Marriott Resort & Spa",+66 32904666,,https://twitter.com/marriottbonvoy,https://www.marriott.com/hotels/hotel-information/fitness-spa-services/details/hhqmr-hua-hin-marriott-resort-and-spa/5749323/
"FIVE Jumeirah Village Hotel,","Dubai, United Arab Emirates",https://www.facebook.com/FIVEJumeirahVillage/,https://www.instagram.com/fivejumeirahvillage/,ReFIVE Spa at FIVE Jumeirah Village Dubai,+971 42489964,,,https://jumeirahvillage.fivehotelsandresorts.com/spa-wellbeing/refive
"Sylvan Koh Chang 63 Moo 4 T. Koh Chang A. Koh Chang, Trat, Thailand 23170","Koh Chang, Thailand",https://www.facebook.com/rainforestspakohchang,https://www.instagram.com/sylvankohchang/,Rainforest Spa Koh Chang,+66 39552815,,,https://sylvankohchang.com/spa
"HVD Reina Del Mar, 1 Chernomorska Street, Obzor, Bulgaria","Nesebar, Bulgaria",https://www.facebook.com/hvdreinadelmar/?ref=page_internal,https://www.instagram.com/hvdreinadelmar/?hl=en,Reina Del Mar,+359 888416995,,,https://www.reinadelmar-bg.com/spa/
"Richmond Nua Wellness Spa Hotel, Rustem Pasa Mahallesi,Kumbaz Cad. No:8, Sapanca, Sakarya, Turkey","Sapanca, Turkey",https://www.facebook.com/RichmondNua/,https://www.instagram.com/richmondnua/?hl=en,Richmond Nua Wellness Spa,+90 2645822100,,,https://www.richmondnua.com/en/
"16/42 Marriner Street, Sumner, Christchurch, New Zealand ","Christchurch, New Zealand",https://web.facebook.com/renaissance.sumner/?_rdc=1&_rdr,https://www.instagram.com/renaissance_sumner/,"Renaissance, The Art of Beauty",+64 276988423,,,https://www.renaissancespa.co.nz/
"Hotel Ocelle Thermae & Spa, Via XXV Aprile, 1, Sirmione BS, Italy","Sirmione, Italy",https://www.facebook.com/hotelocelle/?rf=543291589452787,https://www.instagram.com/hotelocellethermaespa,Ocelle Spa,+39 0309905080,,,https://www.hotelocellesirmione.it/
"Candia Maris Resort & Spa, 72 Anrea Papandreou Avenue, 71414","Crete, Greece",https://www.facebook.com/aegeospas.gr,https://www.instagram.com/aegeospas/,OL Exclusive Wellness Culture by Aegeo Spas at Candia Maris Resort & Spa,+30 2810264400,,,https://olwellness.com/
"160 Arthurs Point Road, Arthurs Point, New Zealand","Queenstown, New Zealand",https://www.facebook.com/OnsenHotPoolsQT/?ref=bookmarks,https://www.instagram.com/onsenhotpools/tagged/?hl=en,Onsen Hot Pools Retreat & Day Spa,+64 034425707,,,https://www.onsen.co.nz/
"Quellenhof Luxury Resort Lazise, Via del Terminon, 19, Lazise, Verona, Italy","Lazise, Italy",https://www.facebook.com/hotel.quellenhof/,https://www.instagram.com/quellenhof_resorts/?hl=en,Onda Spa,+39 0458531000 ,,,https://www.quellenhof-lazise.it/en/
"Al Malik Khaled Street, ","Al Ahsa, Saudi Arabia",https://www.facebook.com/alahsaintercon,https://www.instagram.com/intercontinentalalahsa/,Palmarosa by L’Occitane,+966 135335555,,,https://www.ihg.com/intercontinental/hotels/gb/en/al-ahsa/hofha/hoteldetail?cm_mmc=GoogleMaps-_-IC-_-SA-_-HOFHA
RESIDENCIA DE TALASOTERAPIA SL,"Castellón, Spain",,,Palasiet Thalasso-Clinic & Hotel,964300250,,,https://www.palasiet.com/
"Hyatt Regency Lisboa, Rua da Junqueira, 63, Lisbon, Portugal	","Lisbon, Portugal",https://www.facebook.com/serenitytheartofwellbeing/,https://www.instagram.com/serenityspa_pt/,Serenity Spa – The Art of Wellbeing at Hyatt Regency Lisboa,+351 219023202 ,,,https://serenity-spa.com/lisboa/
"Four Points by Sheraton Danang, 118 – 120 Vo Nguyen Giap street, Phuoc My Ward, Son Tra District, Danang, Vietnam","Da Nang, Vietnam",https://www.facebook.com/serenityspadanang,https://www.instagram.com/serenityspadanang/,Serenity Spa at Four Points by Sheraton Danang,+84 2363997979,,,https://www.marriott.com/en-us/hotels/dadfp-four-points-by-sheraton-danang/experiences/
"Pine Cliffs Resort, Pinhal do Concelho 8200-912 Albufeira, Portugal","Albufeira, Portugal",https://www.facebook.com/serenitytheartofwellbeing/,https://www.instagram.com/serenityspa_pt/,Serenity Spa – The Art of Wellbeing at Pine Cliffs Resort,+351 289501200,,,http://serenity-spa.com/algarve/en/homepage-2/
"STORY Seychelles, ","Mahé, Seychelles",https://www.facebook.com/storyseychelles,https://www.instagram.com/storyseychelles/,Sesel Spa,+248 4387000,,,https://story-seychelles.com/spa-and-wellness
"Strada Jandarmeriei 14A, Bucharest, Romania","Bucharest, Romania",https://www.facebook.com/stejariispa,https://www.instagram.com/shiseidosparomania/,Shiseido Spa at Stejarii Country Club,+40 744332286,,,http://stejariicountryclub.ro/shiseido-spa/
"Excelsior Hotel Gallia, Piazza Duca D'aosta 9, Milan, Italy","Milan, Italy",https://www.facebook.com/excelsiorhotelgallia/,https://www.instagram.com/excelsiorhotelgallia/?hl=en,Shiseido SPA Milan,+39 0267853320,,https://twitter.com/excelsiorgallia,https://www.shiseidospamilan.com/
"Premium float Schwabing, Feilitzschstraße 26, Munich","Munich, Germany",https://www.facebook.com/premium.float.schwabing/,https://www.instagram.com/premiumfloatspaschwabing/,Premium Float & Spa Schwabing,+49 8933039731,,,https://www.float-schwabing.de
"Via San Zeno 13, Naturno, Trentino-Alto Adige, Bolzano, Italy","Naturno, Italy",https://www.facebook.com/preidlhof,https://www.instagram.com/preidlhof/,Preidlhof Luxury Dolce Vita Resort,+39 0473666251 ,,,https://www.preidlhof.it/en/spa-wellness/
"290 Orchard Road, The Paragon #04-48, Singapore 238859","Singapore, Singapore",https://www.facebook.com/porcelainskinofficial,https://www.instagram.com/porcelainskinofficial/,Porcelain,+65 68505161,,,https://porcelainskin.com/
"Crest Resort & Pool Villas, 95, Muen-Ngern Road, Tri Trang, Patong Beach, Kathu District, Phuket, Thailand","Phuket, Thailand",https://www.facebook.com/crestphuket/,https://www.instagram.com/crestresortandpoolvillas/,PRIMA & Holistic Wellness Village Center,+66 76310088,,,https://www.crestphuket.com/
"Pullman Luang Prabang, Ban Pong Wanh, Luang Prabang, Laos","Luang Prabang, Laos",https://www.facebook.com/pullmanluangprabang/,https://www.instagram.com/pullmanluangprabang/,Pullman Luang Prabang Spa,+856 71211112,,,https://www.pullman-luangprabang.com/pullman-fit-spa/
"13/33 Waipa State Mill Road, Whakarewarewa, Rotorua, New Zealand","Rotorua , New Zealand",https://www.facebook.com/secretspothottubs/,https://www.instagram.com/secretspotrotorua/,Secret Spot Hot Tubs Rotorua,+64 73484442,,,https://secretspot.nz
"Puncak Road, Gadog, ","Bogor, Indonesia",https://www.facebook.com/pullmanciawivimalahills,https://www.instagram.com/pullmanciawivimalahills/,Pullman Spa at Pullman Ciawi Vimala Hills Resort Spa & Convention,+62 2518306888,,,https://pullman-ciawi-vimalahills.com/
"Palala Boutique Game Lodge, Groblersbrug, South Africa","Groblersbrug, South Africa",https://www.facebook.com/sedikospa/,https://www.instagram.com/sedikospa/,Sediko Bush Spa,+27 144950050,,https://twitter.com/Palala_Lodge,https://www.sedikospa.co.za/
,New Zealand,,,Secret Spot Hot Tubs Rotorua,+64073484442,,,
"Utopia Blu Hotel, Tigaki, Kos Island, Greece","Kos, Greece",https://www.facebook.com/Utopia-Blu-Kos-106019784891833/,,Serenity Spa,+30 2242441500,,,https://utopiablu.gr/
"Semiramis InterContinental Cairo, Corniche El Nil, Cairo, Egypt","Cairo, Egypt",https://www.facebook.com/semiramisspa/,https://www.instagram.com/spasemiramis/,Semiramis Spa,+20 0227988000,,https://twitter.com/SpaSemiramis,https://www.ihg.com/intercontinental/hotels/us/en/cairo/croha/hoteldetail/ltf/semiramis-spa--fitness-centre
Crowne Plaza Vientiane,"Vientiane, Laos",https://www.facebook.com/crowneplazavientiane,https://www.instagram.com/crowneplazavte/,Senses Day Spa Vientiane,+856 21908888,,,https://vientiane.crowneplaza.com/senses-spa
"3-4/326 Gympie Rd, Strathpine QLD 4500, Australia","Brisbane, Australia",https://www.facebook.com/simplyelegantbeautysalon,https://instagram.com/simplyelegantbeautysalon/,Simply Elegant,+61 738813102,,,https://www.simplyelegant.com.au/
"3 Rue du Vieux Moulin, 67420 Colroy-la-Roche, France","Colroy-la-Roche, France",https://www.facebook.com/hostellerie.lacheneaudiere,,Simples et Miel,+33 388976164,,,https://www.cheneaudiere.com/en/day-spa.html
"VINHA Boutique Hotel, Rua Quinta Fonte da Vinha, 383,","Vila Nova de Gaia, Portugal",https://www.facebook.com/vinhaboutiquehotel,https://www.instagram.com/vinha_boutiquehotel/,"Sisley Paris Spa, VINHA Boutique Hotel",+351 221154123 ,,,https://www.vinhaboutiquehotel.com/en/SPA
"The Alpina Gstaad, Alpinastrasse, Gstaad, Switzerland","Gstaad, Switzerland",https://www.facebook.com/TheAlpinaGstaad/,https://www.instagram.com/thealpinagstaad/?hl=en,Six Senses Spa at The Alpina Gstaad,+41 338889898,,,https://www.thealpinagstaad.ch
"Enashipai Resort & Spa, Moi S Lake Road, Naivasha, Kenya","Nairobi, Kenya",https://www.facebook.com/EnashipaiResortandSpa,https://www.instagram.com/enashipairesort/?hl=en,Siyara Spa,+254 719 051000,,https://twitter.com/enashipai?lang=en,https://www.enashipai.com/siyara-spa
"Sofitel Krabi Phokeethra Golf & Spa Resort, 200 Moo 3, Klong Muang Beach, Tambon Nongtalay, Amphur Muang, Krabi, Thailand","Krabi, Thailand",https://www.facebook.com/SofitelKrabiPhokeethraGolfandSpaResort,https://instagram.com/sofitelkrabiphokeethra,So Spa with L’Occitane at Sofitel Krabi Phokeethra Golf & Spa Resort,+66 75627800,,https://twitter.com/SofitelKrabi,https://www.sofitelkrabiphokeethra.com/
"SO Sofitel Hua Hin, 115 Moo 7, Tambol Bangkao, Amphur Cha-Am, Phetchaburi, Thailand","Cha-Am, Thailand",https://www.facebook.com/SOSofitelHuaHin/,https://www.instagram.com/sosofitelhuahin/?hl=en,SO/ SPA at SO Sofitel Hua Hin,+66 32702555,,https://twitter.com/sohuahin?lang=en,https://www.so-sofitel-huahin.com/things-to-do-huahin/sospa/
"SO/ Bangkok, 2 North, S Sathon Rd, Bang Rak, Bangkok, Thailand","Bangkok, Thailand",https://www.facebook.com/SoSPABangkok ,https://www.instagram.com/sobangkok/?hl=en,SO/ SPA at SO/ Bangkok,+66 26240000,,,https://www.so-bangkok.com/wellness-bangkok/sospa/
"SO/ Sotogrande, Av. Almenara, Sotogrande, Cádiz, Spain","Cádiz, Spain",https://www.facebook.com/sospahealthclubsotogrande,https://www.instagram.com/sospahealthclubsotogrande/?hl=en,SO/ SPA & HEALTH CLUB,+34 956582000,,,https://www.so-sotogrande.com/spa-wellness/so-spa/
"Sofitel Abidjan Hotel Ivoire, Boulevard Hassan II, Abidjan, Ivory Coast ","Abidjan, Ivory Coast",https://www.facebook.com/SofitelAbidjan,https://www.instagram.com/sofitelabidjan/,Sofitel Spa at Sofitel Abidjan Hotel Ivoire,+225 2722482626,,,https://all.accor.com/hotel/8844/index.en.shtml
"Mall of The Emirates, ","Dubai, United Arab Emirates",https://www.facebook.com/SistersBL,https://www.instagram.com/sistersbl,Sisters Beauty Lounge,+971 43792992,,,https://www.sistersbeautylounge.com/
"21 Viaduct Harbour Avenue, Auckland, New Zealand","Auckland, New Zealand",https://www.facebook.com/Sofitel.Viaduct.Harbour/,https://www.instagram.com/sofitelspaauckland/,Sofitel Spa at Sofitel Auckland Viaduct Harbour,+64 93547440 ,,,https://www.sofitel-auckland.com/sofitel-spa
"Sofitel Barú Calablanca Beach Resort, Sector Porto Nao km 7, Isla de Barú, Cartagena de Indias, Colombia","Cartagena, Colombia",https://web.facebook.com/sofitelbaru,https://www.instagram.com/sofitelbaru/?hl=en,Sofitel Barú Calablanca Beach Resort Spa,+57 6056466020 EXT.: 3033,,,https://www.sofitelbarucalablanca.com/wellness/spa/
"C 57, G Block BKC, Bandra Kurla Complex, Bandra East, Mumbai, Maharashtra, India","Mumbai, India",https://www.facebook.com/SofitelMumbaiBKC/,https://www.instagram.com/sofitelmumbaibkc/?hl=en,Sofitel SPA at Sofitel Mumbai BKC,+91 2261175047,,https://twitter.com/SofitelMumbai,https://www.sofitel-mumbai-bkc.com/wellness/sofitel-spa/
"Sofitel Legend Santa Clara, Calle Del Torno 39-29 Barrio, Cartagena, Bolívar, Colombia","Cartagena, Colombia",https://www.facebook.com/SofitelLegendCartagena/?ref=bookmarks,https://instagram.com/sofitellegendsantaclaractg/,Sofitel Spa Santa Clara,+57 56504700,,,https://www.sofitellegendsantaclara.com/spa-fitness/sofitel-spa/
"Sofitel Mauritius L'Impérial Resort & Spa, Wolmar","Flic en Flac, Mauritius",https://www.facebook.com/SofitelMauritiusImperial,https://www.instagram.com/sofitelmauritiuslimperial/,Sofitel SPA with L’OCCITANE,+230 4538700,,,https://www.sofitel-imperial-mauritius.com/spa-fitness/sofitelspa/
"Level 1/169 Pacific Hwy, Charlestown NSW 2290, Australia","Charlestown, Australia",https://www.facebook.com/sojocharlestown,https://www.instagram.com/sojo_spa_wellness/,Sojo Spa & Wellness,+61 249208999,,,http://www.sojospawellness.com.au
"Hyatt Regency Riyadh Olaya, Olaya Street, Riyadh, Saudi Arabia","Riyadh, Saudi Arabia",https://www.facebook.com/HyattRegencyRiyadhOlaya,https://www.instagram.com/hyattregencyriyadholaya/?hl=en,Sokoun Spa & Fitness Center,+966 112881234,,,https://www.luxuryspaawards.com/spa/sokoun-spa-fitness-center/
"614 Tanigawa,","Gunma, Japan",https://www.facebook.com/bettei.senjuan,https://instagram.com/bettei_senjuan?igshid=YmMyMTA2M2Y=,SORA,+81 278204141,,,https://www.senjyuan.jp/
"Sofitel Bali Nusa Dua Beach Resort, ITDC Tourism Complex, Nusa Dua, Badung, Bali, Indonesia","Bali, Indonesia",https://www.facebook.com/SofitelBaliNusaDua/,https://www.instagram.com/SofitelBaliNusaDua/?hl=en,SoSPA at Sofitel Bali Nusa Dua Beach Resort,+62 3618492888,,,http://www.sofitelbalinusadua.com/activities/sospa/
"Hyatt Regency Tokyo, 2-7-2 Nishi-Shinjuku, Shinjuku-Ku, Tokyo, Japan","Tokyo, Japan",https://www.facebook.com/hyattregencytokyo,https://www.instagram.com/hyattregencytokyo/,Spa & Wellness「JOULE」,+81 333481234,,https://twitter.com/HyattRegencyTyo,http://www.hyattregencytokyo.com/
"Hollandveien 30, Son, Norway","Son, Norway",https://www.facebook.com/sonspa,https://www.instagram.com/son_spa/,Son Spa,+47 64984800,,,http://sonspa.no/en/spa-and-fitness/
"214 Cours de l’Argonne, Bordeaux, France","Bordeaux, France",https://facebook.com/spa2be,,Spa 2 Be,+33 784480676,,,http://www.spa2be.com/
"ANA InterContinental Ishigaki Resort, 354-1 Maezato, Ishigaki, Okinawa Prefecture","Okinawa, Japan",https://www.facebook.com/anaintercontinental.ishigaki/,https://www.instagram.com/intercontinental/,SPA Agarosa,+81 335051111,,https://twitter.com/interconhotels,https://www.anaintercontinental-ishigaki.jp/en/spa-wellness/
"Centara Grand Mirage Beach Resort Pattaya, 277 Moo5, Pattaya-Naklua Road, Naklua, Banglamung, Chonburi","Pattaya, Thailand",https://www.facebook.com/Centaragrandmirage,https://www.instagram.com/centaramirage/,Spa Cenvaree at Centara Grand Mirage Beach Resort Pattaya,+66 38301234,,,https://www.spacenvaree.com/spa/centara-grand-mirage-beach-resort-pattaya/
Spa Ceylon Ayurveda Pvt Ltd,"Colombo, Sri Lanka",https://www.facebook.com/SpaCeylonAyurveda,https://www.instagram.com/SpaCeylonOfficial/,Spa Ceylon Luxury Ayurveda,+94 112338111,,https://twitter.com/spaceylon,https://lk.spaceylon.com/index.php/
"Centara Ras Fushi Resort & Spa Maldives, North Malé Atoll, Maldives","North Malé Atoll, Maldives",https://www.facebook.com/centarahotelsresorts/,https://www.instagram.com/explorecentara/,SPA Cenvaree at Centara Ras Fushi Resort & Spa Maldives,+960 7658398,https://za.pinterest.com/centara/%2B-centara-hotels-and-resorts/?lp=true,https://twitter.com/explorecentara/,http://www.centarahotelsresorts.com/centara/crf/
"27 - 29 Bd des Capucines, 75002 Paris, France","Paris, France",https://www.facebook.com/Kimpton-St-Honor%C3%A9-Paris-105439304725256,https://www.instagram.com/kimpton/,Spa Codage Paris,+33 180407610,,https://twitter.com/Kimpton,https://kimptonsthonoreparis.com/en/spa/
"Village Blanc, Place du Marché, Vonnas, France","Vonnas, France",https://www.facebook.com/spageorgesblanc/,https://www.instagram.com/spa_georgesblanc/,Spa Georges Blanc by Sym Biologic System,+33 474509048,,,https://www.georgesblanc.com/fr/village-blanc/spa
"Hanging Gardens of Bali, A. Desa Buahan, Payangan, Bali, Indonesia","Bali, Indonesia",https://www.facebook.com/hanginggardensbali/,https://www.instagram.com/hanginggardensofbali/,Spa Collection at Hanging Gardens of Bali,+62 361982700,,https://twitter.com/hanginggardens5,https://hanginggardensofbali.com/
"3001 Route des Hauts du Camp, Le Castellet, France","Le Castellet, France",https://www.facebook.com/spaducastellet/,https://www.instagram.com/spaducastellet/,Spa du Castellet by Sym Biologic System,+33 494982964,,https://twitter.com/HotelCastellet,https://www.hotelducastellet.net/fr/
"Hotel Le Cep, 27 Rue Jean-François Maufoux, Beaune, France","Beaune, France",https://www.facebook.com/spamariedebourgogne/,https://www.instagram.com/explore/locations/296021010792047/spa-marie-de-bourgogne-beaune/,Spa Holistique Marie de Bourgogne,+33 380223548,,,https://www.spamariedebourgogne.com/en/
"32-34 Trần Phú, Lộc Thọ, Thành phố, Nha Trang, Khánh Hòa, Vietnam","Nha Trang, Vietnam",https://www.facebook.com/intercontinentalnhatrangvn,https://www.instagram.com/intercontinental_nhatrang/?hl=en,Spa InterContinenal Nha Trang,+84 2583737212 ,,,http://nhatrang.intercontinental.com/spa-intercontinental
"InterContinental Barcelona, Av. de Rius i Taulet, 1-3, Barcelona, Spain","Barcelona, Spain",https://www.facebook.com/InterContinental-Barcelona-106892595068285,https://instagram.com/intercontinental_barcelona?utm_medium=copy_link%20,Spa InterContinental at InterContinental Barcelona,+34 934262223,,https://twitter.com/ICBarcelona,https://barcelona.intercontinental.com/en/spa-intercontinental/
"1-4-8 Aobadai, Meguro-ku, Tokyo, Japan","Tokyo, Japan",https://www.facebook.com/spadamaidaikanyama,https://www.instagram.com/spa_damai/?hl=ja,SPA DAMAI Daikanyama,+81 334624148,,,http://spadamai.jp/
"The Prince Gallery Tokyo Kioicho, 30F 1-2 Kioicho, Chiyoda-ku","Tokyo, Japan",https://www.facebook.com/theprincegallery.tokyokioicho,,SPA KIOI by SWISS PERFECTION,+81 332341168,,,https://www.montsaintmichel.jp/kioi-spa/
"Crown Plaza, Kuwait Al Thuraya City, Street 103, Airport Road, Kuwait","Al Thuraya, Kuwait",https://www.facebook.com/spaaquatonic/,https://www.instagram.com/spaaquatonickuw/?hl=en,Spa Aquatonic,+965 1848 111,,,https://www.ihg.com/holidayinn/hotels/us/en/kuwait/kwikw/hoteldetail
"JW Marriott Cancun Resort & Spa,  Boulevard Kukulcán, Lote 40-A, KM 14.5, Zona Hotelera, Cancún, Mexico","Cancun, Mexico",https://www.facebook.com/jwmarriottcancun,https://www.instagram.com/jwcancun/,Spa at JW Marriott Cancun Resort,+52 9988489700,,https://twitter.com/JWCancun,https://www.marriott.com/hotels/hotel-information/fitness-spa-services/cunjw-jw-marriott-cancun-resort-and-spa/
"Kemankeş Karamustafa Paşa, Veli Alemdar Han, Kemankeş Cd. No 49, Beyoğlu, İstanbul, Turkey","Istanbul, Turkey",https://www.facebook.com/jwmarriottistanbulbosphorus/,https://www.instagram.com/jwmarriottistanbulbosphorus/?hl=en,Spa at JW Marriott İstanbul Bosphorus Hotel,+90 2128062020,,,
"Burasari Resort Patong, 18/110 Ruamjai Road, Tambon Patong, Amphur Kathu, Phuket, Thailand","Phuket, Thailand",https://www.facebook.com/spaburasari/?__tn__=%2Cd%2CP-R&eid=ARCjudG-nMLmKGK6dM1J69Km4XmD0hVsi370qk4ddhe6lPCOZ1bkGAMWHOU1XerHdppGNauK2Tw2JjYO,https://www.instagram.com/spaburasari/?hl=en,SPA Burasari,+66 22228822,,,http://www.spa.burasari.com/
NOOM HOTEL ABIDJAN PLATEAU,"Abidjan, Ivory Coast",,,Spa By Noom,+225 2520008000,,,https://www.noomhotels.com/noom-hotel-abidjan-plateau
"The Westin Surabaya, Pakuwon Mall, Jalan Puncak Indah Lontar No 2, Surabaya, East Java, Indonesia","Surabaya, Indonesia",https://www.facebook.com/westinsurabaya/,https://www.instagram.com/westinsurabaya/,Spa by L’Occitane at The Westin Surabaya,+62 3129710000,,,https://www.spaatwestinsurabaya.com/
"Nolinski Paris, 16 Avenue de l'Opéra, Paris, France","Paris, France",https://www.facebook.com/nolinskiparis,https://www.instagram.com/nolinskiparis/,Spa Nolinski by La Colline,+33 158120303,,,https://nolinskiparis.com/?lang=en
Nolinski Venezia,"Paris, France",https://www.facebook.com/profile.php?id=100088502727257,https://www.instagram.com/nolinskivenezia/,Spa Nolinski Venezia,+33 (0)6 42 04 42 44,https://www.pinterest.fr/evokcollection/_created/,,https://nolinskivenezia.com/en/spa-luxury-hotel/
"Susona Bodrum, LXR Hotels & Resorts, Torba, Kaynar Cd No:15, Muğla, Turkey","Bodrum, Turkey",https://www.facebook.com/susonabodrum,https://www.instagram.com/susonabodrum/,Spa Soul at Susona Bodrum,+90 2522112700  ,,,https://lxrhotels3.hilton.com/lxr/susona-bodrum/discover/
"Floor 38, Kipco Tower, Khalid inn Waleed st, Sharq, Safat, Kuwait","Kuwait City, Kuwait",https://www.facebook.com/spatime.ku/,https://www.instagram.com/spatimekw/?hl=en,SPA TIME,+965 22943277,,,https://spatime-ku.com/
"Vilniaus g. 80, ","Anyksciai, Lithuania",https://www.facebook.com/spavilniusgroup/,https://www.instagram.com/spavilnius/?hl=en,SPA VILNIUS,+370 31353811,,,https://www.spavilnius.lt/en
"Bernard Loiseau, 2 avenue Bernard Loiseau, 21210 Saulieu","Saulieu, France",https://www.facebook.com/relaisbernardloiseau/?locale=fr_FR,,SPA LOISEAU DES SENS,0380905353,,,https://www.bernard-loiseau.com/en/bernardloiseau-spa.html
"Bürgeraue 6, Gotha, Germany","Gotha, Germany",,,SPA Management Group,+49 6232647667,,,"https://www.google.com/maps/place/B%C3%BCrgeraue+6,+99867+Gotha,+Germany/data=!4m2!3m1!1s0x47a47c04f78f9a91:0xd3cda20fad42a009?sa=X&ved=2ahUKEwjszcX489nuAhWRtXEKHVQ7DJcQ8gEwAHoECAUQAQ"
"Château de Maubreuil, Allée de Maubreuil, Carquefou, Nantes, France","Nantes, France",https://www.facebook.com/chateaudemaubreuil,https://www.instagram.com/chateaudemaubreuil/,Spa Le Maubreuil,+33 769869882,,,https://www.spalemaubreuil.com/en/
A-ROSA Sylt Hotel,"Sylt, Germany",https://www.facebook.com/arosaresortsandhideaways,https://www.instagram.com/arosahotels/,SPA-ROSA,+49 465196750774,,,https://www.a-rosa-resorts.de/reiseziele/sylt/spa-rosa-sylt.html
"The Naka Island, a Luxury Collection Resort, 32 Moo 5, Paklok, Thalang, Phuket, Thailand","Phuket, Thailand",https://www.facebook.com/thenakaisland,https://www.instagram.com/nakaislandphuket/,Spa Naka,+66 76371400 ,,https://twitter.com/NakaIsland_LC,https://www.marriott.com/en-us/hotels/pyxlc-the-naka-island-a-luxury-collection-resort-and-spa-phuket/experiences/
"Hotel de Yama, 250-0522 80 Motohakone, Hakone-machi, Ashigarashimo-gun, Kanagawa Odakyu Mountain Hotel","Hakone, Japan",https://www.facebook.com/hoteldeyama/,https://www.instagram.com/odakyuhotel.yama/,Spa Montagne by The Day Spa,+81 460836321,,,https://www.hakone-hoteldeyama.jp/hotspring&spa/spa/
"3 Upper Pickering Street, Singapore","Singapore, Singapore",https://www.facebook.com/parkroyalpickering,https://www.instagram.com/parkroyalpickering/,"St. Gregory Spa at PARKROYAL COLLECTION Pickering, Singapore",+65 68098870,,,https://www.panpacific.com/en/hotels-and-resorts/pr-pickering/facilities/st-gregory.html
"Hotel Plunhof, Obere Gasse 7, Ridnaun-Ratschings, Italy","Ridnaun-Ratschings, Italy",https://www.facebook.com/Hotel.Plunhof/,https://www.instagram.com/hotelplunhof/,Spa Minera at Hotel Plunhof,+39 0482656247,,https://twitter.com/Plunhof,https://www.plunhof.it/en/plunhof.html
"Stobo Castle, Stobo, Peebles, Scotland, United Kingdom","Peebles, United Kingdom",https://www.facebook.com/StoboCastle,https://www.instagram.com/stobo_castle/,Stobo Castle Health Spa,+44 1721725300,,https://twitter.com/stobocastle,https://www.stobocastle.co.uk/
"Sárvár, Vadkert utca 5, Hungary","Sárvár, Hungary",https://www.facebook.com/spirithotel/,https://www.instagram.com/spirit_hotel_thermal_spa,Spirit Hotel Thermal Spa,+36 95889500,,,https://spirithotel.hu/spa-vilag/
"Jalan Petitenget 7, Kerobokan, Seminyak, Bali","Bali, Indonesia",https://www.facebook.com/Sundari.Day.Spa/,https://www.instagram.com/sundari.day.spa/,Sundari Day Spa,+62 361735073,,,https://www.sundari-dayspa.com/
"Swissôtel Al Ghurair, Omar Bin Al Khattab Road, Deira, Dubai, United Arab Emirates","Dubai, United Arab Emirates",https://www.facebook.com/SwissotelAlGhurair,https://www.instagram.com/swissotelalghurair/,Swissotel Spa & Sports,+971 42933322,,,https://www.swissotel.com/hotels/dubai-al-ghurair/spa-fitness/
"5/58 Metroplex Avenue, Murarrie, Australia","Murarrie, Australia",http://www.facebook.com/StephaniesLuxurySpas,http://instagram.com/stephaniesluxuryspas,Stephanies Luxury Spas,+61 731712288,,https://twitter.com/StephaniesSpas,https://stephanies.com.au/
"Rue de la Roche Colombe, Étoile-sur-Rhône, France","Étoile-sur-Rhône, France",,https://www.instagram.com/sym.biologicsystem/,Sym Biologic System Skin Care,+33 475780168,,,https://www.symbiologicsystem.com/
"25 Northumberland Avenue, London, United Kingdom","London, United Kingdom",https://www.facebook.com/thaisquarespa,https://www.instagram.com/thaisquarespa/?hl=en,Thai Square Spa,+44 2078397990,https://www.pinterest.co.uk/thaisquarespa/,,https://thaisquarespa.com/
"Berjaya Langkawi Resort,","Kedah, Malaysia",https://www.facebook.com/blrlgk,https://www.instagram.com/berjayalangkawiresort/,Taaras Spa,+604 9591888,,,https://www.berjayahotel.com/langkawi/experiences/spa.html
"Hyatt Regency Hua Hin, 91 Hua Hin – Khao Takiap Road, Hua Hin, Prachuap Khiri Khan, Thailand","Hua Hin, Thailand",https://www.facebook.com/thebarai/,https://www.instagram.com/the_barai/,THE BARAI Spa,+66 32511234  ,,,https://thebarai.com
"The Darling, 80 Pyrmont St, Pyrmont NSW 2009, Australia","Sydney, Australia",https://www.facebook.com/thestar,https://www.instagram.com/thestarsydney/,The Darling Spa,+61429369706,,,https://www.star.com.au/sydney/hotels-and-spa/the-darling/spa
37 Sheppard Road Emu Plains NSW,"Sydney, Australia",https://www.facebook.com/dayspapenrith/,https://www.instagram.com/dayspapenrith/,The Day Spa @ Jorja James,+61 247353470,,,https://thedayspas.com.au/
"1-8-14 Hiranomachi Chuo-ku, Osaka City, Japan","Osaka City, Japan",https://www.facebook.com/tdsosaka/,https://www.instagram.com/the_day_spa_japan/?hl=ja,The Day Spa OSAKA,+81 662278085,,,http://www.thedayspa.jp/
"Aqua Blu Boutique Hotel & Spa, Ephelondon Paleon Polemiston Lambi Beach, 853 00, Greece","Kos, Greece",https://www.facebook.com/AquaBluBoutiqueHotelSpa/,https://www.instagram.com/tamaris_spa/,Tamaris Spa at Aqua Blu Boutique Hotel & Spa,+30 2242022440,,,https://www.aquabluhotel.gr/spa-fitness/
"Jumeirah Bali, Kawasan Pecatu Indah Resort, Jl. Raya Uluwatu, Pecatu, Kuta Selatan, Kab. Badung, Bali","Bali, Indonesia",https://www.facebook.com/jumeirahbali,https://www.instagram.com/jumeirahbali/,Talise Spa at Jumeirah Bali,+62 3612015000,,,https://www.jumeirah.com/en/rejuvenate/bali/jumeirah-bali/talise-spa-bali
"Creta Maris Beach Resort,","Crete, Greece",https://www.facebook.com/aegeospas.gr,https://www.instagram.com/aegeospas/,The Hammam Spa by Aegeo Spas at Creta Maris Resort,+30 2897022161,,,https://www.cretamaris.gr/experiences/spa-and-wellness/spa
"NagaWorld, Samdech Techo Hun Sen Park, Phnom Penh, Cambodia","Phnom Penh, Cambodia",https://facebook.com/nagaworld/?__tn__=C-R,https://www.instagram.com/nagaworld_hotel/,The Elixir of Life,+855 23228822 ,,https://twitter.com/nagaworldhotel,https://www.nagaworld.com/
Dokken Daikanyama Heights#701,"Tokyo, Japan",https://www.facebook.com/tfdbeauty.jp,https://www.instagram.com/termefelice/,Terme Felice,+81 3 64278267,,,https://tfdbeauty.jp/
"Fivelements Retreat Bali, Mambal, Abiansemal, Badung Regency, Bali, Indonesia","Bali, Indonesia",https://www.facebook.com/FivelementsRetreats/,https://www.instagram.com/fivelementsretreats/,The Healing & Wellness Sanctuary at Fivelements Retreat Bali,+62 361469206,,,http://fivelementsbali.com/the-wellness-sanctuary-spa/
Jl. Danau Tamblingan No. 31,"Bali, Indonesia",https://www.facebook.com/thenestboutiquespa/,https://www.instagram.com/thenestspasbali/,The Nest Boutique Spa,+62 3614491199,,,https://www.thenestboutiquespa.com/
The Henna Place Limited,"Lagos, Nigeria",https://www.facebook.com/thehennaplace/,https://www.instagram.com/thehennaplace/,The Henna Place,+234 9095327273,,,https://www.thehennaplacespa.com/
"Aphrodite Hills, 3 Aphrodite Avenue, Kouklia, 8509","Paphos, Cyprus",https://www.facebook.com/aegeospas.gr,https://www.instagram.com/aegeospas/,THE RETREAT by Aegeo Spas at Aphrodite Hills,+357 97910214,,,http://www.aphroditehills.com/spa/
"ROKU KYOTO, LXR Hotels & Resorts, 44-1 Kinugasa Kagamiishi-cho, Kita-ku, Kyoto 603-8451","Kyoto, Japan",https://www.facebook.com/roku.kyoto.lxr,https://www.instagram.com/roku.kyoto/,THE ROKU SPA,+81 753200136,,,https://www.rokukyoto.com/spa
"Sharq Village & Spa, a Ritz-Carlton Hotel, Ras Abu Abboud Street, Doha, Qatar","Doha, Qatar",https://www.facebook.com/ritzcarltonsharqvillagedoha,https://www.instagram.com/sharqvillageandspa/,"The Ritz-Carlton Spa Sharq Village, Doha",+974 55996786,,,https://www.ritzcarlton.com/en/hotels/qatar/sharq-village/spa
"Intrarea Sevastopol nr 1, Sector 1, Bucuresti, Romania","Bucharest, Romania",https://www.facebook.com/THAIcoSPA,https://www.instagram.com/thaico_spa/?hl=en,THAIco SPA,+40 734089336,,,https://thaicospa.ro/
"Pagiri, Alonnisos, The Sporades, Greece","Alonnisos, Greece",https://www.facebook.com/amanispa2016,https://www.instagram.com/amanispa2016,The Amani 180,+30 6980854278,,,https://www.theamanispa.com/
"Pullman Timi Ama Sardegna, Viale dei Ginepri, 3, Villasimius, Italy","Villasimius, Italy",https://www.facebook.com/HotelPullmanTimiAmaSardegna/,https://www.instagram.com/pullman_timi_ama_sardegna/,Thalassa Timi Ama,+39 07079791,,https://twitter.com/pullmantimiama1,https://www.pullman-timiama-sardegna.com
"Dolce Attica Riviera, Vravronos Avenue, 19003","Attica, Greece",https://www.facebook.com/aegeospas.gr,https://www.instagram.com/aegeospas/,THALASSOTHERAPY CENTER by Aegeo Spas at Dolce Attica Riviera,+30 2294049945,,,https://www.dolceatticariviera.com/dolce-hotel-attica-riviera-spa/
"Santo Pure Oia Suites & Villas,","Santorini, Greece",https://www.facebook.com/aegeospas.gr,https://www.instagram.com/aegeospas/,The Anassa Spa by Aegeo Spas at Santo Pure Oia Suites & Villas,+30 2286071035,,,https://santocollection.gr/santo-pure/wellness/
"IKAROS BEACH Luxury Resort & Spa, Malia TK 700 07, Crete","Crete, Greece",https://www.facebook.com/aegeospas.gr,https://www.instagram.com/aegeospas/,THE AURA SPA by Aegeo Spas at Ikaros Beach Resort & Spa,+30 2897031253,,,https://www.ikarosvillage.gr/gr/the-aura-spa-malia-crete
"The Spa at David InterContinental Tel Aviv, Kaufmann St 12, Tel Aviv-Yafo, Israel","Tel Aviv, Israel",https://www.facebook.com/ictelaviv/,https://www.instagram.com/ictelaviv/,The Spa at David InterContinental Tel Aviv,+972 37951252,,https://twitter.com/ICTelAviv,https://telaviv.intercontinental.com/
"Elika Cave Suites, Ulus Meydani, Kapadokya Nevşehir TR, Cami Sk. No:10, Ürgüp, Turkey","Cappadocia, Turkey",https://www.facebook.com/elikacavesuites/,https://www.instagram.com/elikacavesuites/?hl=en,The Spa at Elika Cave Suites,+90 3843432525,,,https://www.elikacavesuites.com
"Fancourt,","George, South Africa",https://www.facebook.com/Fancourt.SA,https://www.instagram.com/fancourtsa/,The Spa at Fancourt,+27 448040013,,,http://www.fancourt.com/en/home/
"Gran Meliá Arusha, Simeon Road, Arusha, Tanzania","Arusha, Tanzania",https://web.facebook.com/GranMeliaArusha,https://www.instagram.com/granmeliaarusha/?hl=en,The Spa at Gran Melia Arusha,+255 746982400,,https://twitter.com/granmeliahotels?lang=en,https://www.melia.com/en/hotels/tanzania/arusha/gran-melia-arusha/services.htm
"Grand Park Kodhipparu, Kodhipparu, Maldives 08121, Maldives","North Malé Atoll, Maldives",https://www.facebook.com/GrandParkKodhipparu,https://www.instagram.com/grandparkkodhipparu/,"The Spa at Grand Park Kodhipparu, Maldives",+960 6651111,,https://twitter.com/GrandParkMaldvs,https://www.parkhotelgroup.com/north-male-atoll/grand-park-kodhipparu-maldives/the-spa
"G, 1 Minto Rd, Dhaka 1000, Bangladesh","Dhaka, Bangladesh",https://www.facebook.com/DhakaInterContinental/,https://www.instagram.com/intercontinentaldhaka/?hl=en,The Spa at InterContinental Dhaka,+880 255663030,,,https://www.ihg.com/intercontinental/hotels/us/en/dhaka/dachb/hoteldetail/amenities
"The Chedi Andermatt, Gotthardstrasse 4, Andermatt, Switzerland","Andermatt, Switzerland",https://www.facebook.com/TheChediAndermatt,https://www.instagram.com/TheChediAndermatt/,The Spa and Health Club,+41 0418887488,https://za.pinterest.com/GHMhotels/,https://twitter.com/GHMhotels,https://www.thechediandermatt.com/en/Spa-and-Recreation
"Address Beach Resort, The Walk, Jumeirah Beach Residence, Dubai, United Arab Emirates","Dubai, United Arab Emirates",https://www.facebook.com/addressbeachresort,https://www.instagram.com/addressbeachresort/?hl=en,The Spa at Address Beach Resort,+971 48798896,,,https://www.addresshotels.com/en/resorts/address-beach-resort/
"Bayat Hotel, King Faisal Road, Khamis Musheit, Saudi Arabia","Khamis Musheit, Saudi Arabia",https://www.facebook.com/bayatksa/,https://www.instagram.com/bayatksa/?hl=en,The Spa at Bayat Hotel,+966 501264964,,,http://www.bayat-hotels.com/khamis/spa-gym/
"Ardencote Manor, Ardencote, The Cumsey, Lye Green Road, Claverson, Warwick, United Kingdom","Claverson, United Kingdom",https://www.facebook.com/ardencote/,https://www.instagram.com/ardencote/,The Spa at Ardencote,+44 1926843111,,https://twitter.com/ardencotemanor,https://www.ardencote.com/spa/
"The Chedi Lustica Bay, Lustica Bay Marina, Radovići, Tivat, Montenegro","Radovići, Montenegro",https://www.facebook.com/ChediLusticaBay/,https://www.instagram.com/thechedilusticabay/,The SPA at Chedi Lustica Bay,+382 32661266,,https://twitter.com/ChediLusticaBay,https://www.chedilusticabay.com/en
"NagaWorld, Samdech Techo Hun Sen Park, Phnom Penh, Cambodia","Phnom Penh, Cambodia",https://facebook.com/nagaworld/?__tn__=C-R,https://www.instagram.com/nagaworld_hotel/,The Spa at NagaWorld,+855 23228822 ,,https://twitter.com/nagaworldhotel,https://www.nagaworld.com/
"Carden Park, Broxton Road,","Chester, United Kingdom (UK)",https://www.facebook.com/CardenPark/,https://www.instagram.com/thespaatcarden/,The Spa at Carden,+44 1829731522,,https://twitter.com/cardenpark,https://www.cardenpark.co.uk/spa/
"Renaissance Pattaya Resort & Spa, 9/9 Moo 3, Na Jomtien, Sattahip, Pattaya City, Sattahip District, 20250, Thailand","Pattaya City, Thailand",https://www.facebook.com/RENPattayaResort,https://www.instagram.com/renaissancepattaya/,The Spa at Renaissance Pattaya Resort & Spa,66 38259099,,,https://www.marriott.com/en-us/hotels/pyxbr-renaissance-pattaya-resort-and-spa/overview/?scid=bb1a189a-fec3-4d19-a255-54ba596febe2&y_source=1_NTkxNjU5Ni03MTUtbG9jYXRpb24ud2Vic2l0ZQ%3D%3D
"Sheraton Grand Jakarta Gandaria City Hotel, 6th floor, Jl Sultan Iskandar Muda, Jakarta, Indonesia","Jakarta, Indonesia",https://www.facebook.com/sheratonjakarta/,https://www.instagram.com/sheratonjakarta/,The Spa at Sheraton Grand Jakarta Gandaria City,+62 2180630888,,,https://www.marriott.com/hotels/hotel-information/restaurant/jktgs-sheraton-grand-jakarta-gandaria-city-hotel/
"The Rhino Resort Hotel & Spa, Rue Du Karting s/n, Route de Saly, Saly, Senegal","Saly, Senegal",,,The Spa at The Rhino Resort Hotel & Spa,+221 339573744,,,https://therhinoresort.com/en/spa/
"New World Phu Quoc Resort, Khem Beach, Phu Quoc City, Kien Giang Province, Vietnam","Phú Quốc, Vietnam",https://www.facebook.com/newworldphuquocresortofficial/,https://www.instagram.com/newworldphuquocresort/,The Spa at New World Phu Quoc Resort,+84 2973716666,,,https://phuquoc.newworldhotels.com/en/leisure-spa/the-spa/
"The Cloister at Sea Island, 100 Cloister Drive, Sea Island, Georgia, United States","Georgia , United States (US)",https://www.google.com/url?sa=t&rct=j&q=&esrc=s&source=web&cd=&cad=rja&uact=8&ved=2ahUKEwjb5Km3kJryAhWVoFwKHQCPBFMQFnoECAYQAw&url=https%3A%2F%2Fwww.facebook.com%2Fseaisland%2F&usg=AOvVaw0IQtD7pWlaYJdj0XP5b0AE,https://www.google.com/url?sa=t&rct=j&q=&esrc=s&source=web&cd=&cad=rja&uact=8&ved=2ahUKEwj5j8DVkJryAhWIXsAKHSitCzQQFnoECAYQAw&url=https%3A%2F%2Fwww.instagram.com%2Fseaisland%2F%3Fhl%3Den&usg=AOvVaw0C5MWZMucmqFubr9moTR6w,The Spa at Sea Island,+1 8779261072,,,https://www.seaisland.com/spa-fitness/spa/
"Mandarin Oriental Bosphorus, Istanbul, Kuruçeşme, Muallim Naci Caddesi No.62, Beşiktaş, Istanbul, Turkey","Istanbul, Turkey",https://www.facebook.com/MandarinOrientalIstanbul,,"The Spa at Mandarin Oriental Bosphorus, Istanbul",+90 2123498808,,,https://www.mandarinoriental.com/istanbul/bosphorus/luxury-spa
"Manor House Hotel & Spa, Audley Road, Alsager, East Cheshire, ST7 2QQ","Alsager, United Kingdom (UK)",https://www.facebook.com/ManorHouseHotelAlsager,https://www.instagram.com/spaatthemanorhouse/?hl=en,The Spa at Manor House,+44 1270884000,,,https://www.manorhousealsager.com/spa
"Göltürkbükü Mahallesi 314,  Sokak No. 12/1, Bodrum, Muğla, Turkey","Bodrum, Turkey",https://www.facebook.com/MandarinOrientalBodrumTurkey,https://www.instagram.com/mo_bodrum/,"The Spa at Mandarin Oriental, Bodrum",+90 2523111888,,,https://www.mandarinoriental.com/bodrum/paradise-bay/luxury-hotel?htl=MOBOD&kw=MOBOD&eng=google&src=local
"Mandarin Oriental, Paris, 251 Rue Saint-Honoré, Paris, France","Paris, France",https://www.facebook.com/MandarinOrientalParis,http://instagram.com/mo_paris,"The Spa at Mandarin Oriental, Paris",+33 170987335,,https://www.twitter.com/MO_PARIS,https://www.mandarinoriental.com/paris/place-vendome/luxury-spa
"Mandarin Oriental Hyde Park, 66 Knightsbridge, London SW1X 7LA, United Kingdom","London, United Kingdom (UK)",https://www.facebook.com/mandarinorientalhydepark/,https://www.instagram.com/mo_hydepark/?hl=en,"The Spa at Mandarin Oriental Hyde Park, London",+44 2078389888,,https://twitter.com/mo_london,https://www.mandarinoriental.com/en/london/hyde-park/spa
The Thousand Kyoto,"Kyoto, Japan",https://www.facebook.com/thethousandkyoto/,https://www.instagram.com/thethousandkyoto/,The Thousand Spa,+81 753513345,,,https://www.keihanhotels-resorts.co.jp/the-thousand-kyoto/spa/
"Millbrook Resort, 1124 Malaghans Road, Arrowtown, New Zealand","Queenstown, New Zealand",https://www.facebook.com/MillbrookNZ,https://www.instagram.com/millbrookresort/,The Spa at Millbrook Resort,+64 34417017,https://za.pinterest.com/millbrooknz/,https://twitter.com/MillbrookNZ,https://www.millbrook.co.nz/spa
"The Well Hotel, Kongeveien 65, Sofiemyr, Norway","Sofiemyr, Norway",https://www.facebook.com/thewellspa/,https://www.instagram.com/thewellspa/,The Well Spa,+47 480 44 888,,,https://thewell.no/en
"4 Lawrence Rd, Ikoyi 101233, Lagos, Nigeria","Lagos, Nigeria",https://www.facebook.com/OfficiallyWheatbaker,https://www.instagram.com/officiallywheatbaker/,The Wheatbaker Spa,+234 019067133,,https://mobile.twitter.com/thewheatbaker,https://thewheatbakerlagos.com/
"Sea Cliff Resort & Spa Zanzibar, Kama Village, Mangapwani, Zanzibar, Tanzania","Zanzibar, Tanzania",https://www.facebook.com/SeaCliffResortSpa/,https://www.instagram.com/seacliffzanzibar/?hl=en,The Zuri Rituals Spa,+255 774411129,,,http://seacliffzanzibar.com/spa-wellness/
"The St. Regis Downtown Dubai, Marasi Drive, Dubai, United Arab Emirates","Dubai, United Arab Emirates",https://www.facebook.com/stregisdowntowndubai/,https://www.instagram.com/stregisdowntowndubai/,"The St. Regis Spa, Downtown Dubai",+971 45125566,,,https://www.marriott.com/en-us/hotels/dxbdx-the-st-regis-downtown-dubai/experiences/
"159 Sin Ming Road, #05-06","Singapore, Singapore",,,The Ultimate,+65 96463733,,,https://www.theultimate.com.sg/
"The West Hollywood EDITION, 9040 Sunset Blvd, West Hollywood, California, United States","West Hollywood, United States of America",https://facebook.com/TheWestHollywoodEDITION,https://www.instagram.com/wehoedition,The Spa at The West Hollywood EDITION,+1 4243101622,,https://twitter.com/EDITIONHotels,https://www.editionhotels.com/weho/spa-and-fitness/
"Hotel Indigo Karuizawa,18-39 Yashikizoe Nagakura Karuizawa-machi, Kitasaku-gun Nagano","Nagano, Japan",https://www.facebook.com/harnnwellnessandhospitality/,https://www.instagram.com/harnnwellnessandhospitality/,The Spa by HARNN at Hotel Indigo Karuizawa,'+81 267421100,,,https://www.ihg.com/hotelindigo/hotels/us/en/karuizawa/qngka/hoteldetail
"Wald & Schlosshotel Friedrichsruhe, Kärcherstraße 11, Zweiflingen-Friedrichsruhe, Germany","Zweiflingen, Germany",https://www.facebook.com/Friedrichsruhe,https://www.instagram.com/schlosshotel_friedrichsruhe/,The Spa at Wald & Schlosshotel Friedrichsruhe,+49 794160870,,https://twitter.com/friedrichsruhe,https://schlosshotel-friedrichsruhe.de
"Palmeiras Suite Hotel, Av. Talatona, Rua Dubai, Via AL 15, Luanda Sul, Luanda, Angola","Luanda, Angola",https://www.facebook.com/palmeirashotels/,https://www.instagram.com/palmeirashotel/,The Spa by Palmeiras,+244 923167222,,,https://www.palmeirashotels.com/
"Hotel Royal Tulip Golf Resort Gunung Geulis, Jalan Pasir Angin, Nagrak, Sukaraja. Gadog, Ciawi, Bogor, West Java, Indonesia","Bogor, Indonesia",https://www.facebook.com/RoyalTulipGG,https://www.instagram.com/royaltulipgg/,The Spa By Royal Tulip,+62 2517563800,,,https://royal-tulip-gunung-geulis.goldentulip.com/id
"956-1110 Avenida da Amizade, Macau, China","Macau, China",https://www.facebook.com/GrandLapaMacau,https://www.instagram.com/grandlapamacau/,"The Spa, Artyzen Grand Lapa Macau",+853 87934824,,,https://www.grandlapa.com/en-gb
Thermae Sylla Spa & Wellness Hotel,"Edipsos, Greece",https://www.facebook.com/ThermaeSyllaSpaWellnessHotel,https://www.instagram.com/thermae_sylla/,Thermae Sylla Spa Wellness Hotel,+30 2226060100,,https://twitter.com/ThermaeSylla,https://www.thermaesylla.gr/en/
"Galgorm, 136 Fenaghy Road,	Ballymena, United Kingdom","Ballymena, United Kingdom",https://www.facebook.com/Galgorm/,https://www.instagram.com/galgormresort/?hl=en,Thermal Spa Village at Galgorm,+44 2825882554,,https://twitter.com/GalgormResort?ref_src=twsrc%5Egoogle%7Ctwcamp%5Eserp%7Ctwgr%5Eauthor,http://www.galgorm.com/
"Boracay Tambisaan Jetty Port Road, Malay, Aklan, Philippines","Boracay, Philippines",https://www.facebook.com/TirtaSpa/,https://www.instagram.com/tirtaspaboracay/?hl=en,Tirta Spa Boracay,+63 362886841,,,https://www.tirtaspa.com/
"La Veranda Resort Phu Quoc - MGallery, Đường Trần Hưng Đạo, Street, Beach, Kiên Giang, Vietnam","Phu Quoc, Vietnam",https://www.facebook.com/LaVerandaResortPhuQuoc,https://www.instagram.com/laverandaresortphuquoc/?hl=en,TĨNH Wellness Sanctuary,+84 2973982988,,,https://tinhwellnesscenter.com/
"Ultimate Provence, 7270 Route du Luc, La Garde-Freinet, France","La Garde-Freinet, France",https://www.facebook.com/UltimateProvence/,https://www.instagram.com/ultimate_provence/,Ultimate Provence Spa,+33 494852910,,,https://www.ultimateprovence.com/
"Grantley Hall, Ripon, North Yorkshire, United Kingdom","Ripon , United Kingdom (UK)",https://www.facebook.com/GrantleyHallYorkshire/,https://www.instagram.com/GrantleyHall_/,Three Graces Spa,01765620070,,https://twitter.com/GrantleyHall_/,https://www.grantleyhall.co.uk/spa/three-graces-spa
"Low Westwood Lane, Linthwaite, Huddersfield, United Kingdom","Huddersfield, United Kingdom",http://facebook.com/titanicspauk,http://instagram.com/titanic_spa,Titanic Spa,+44 1484843544,,https://twitter.com/titanicspa,https://www.titanicspa.com/
"40 Pratt St, South Mackay QLD, Australia","Queensland, Australia",,,Ultra Medi Spa,+61 749696073,,,https://ultraspa.com.au/
"L2-02 Second Floor, 163 Retail Park,","Kuala Lumpur, Malaysia",https://www.facebook.com/urbanretreatspa/,https://www.instagram.com/UrbanretreatSpaMy/,Urban Retreat Spa,+60 178814486,,,http://www.urbanretreatspa.my/
"Fashion City, 9A, Ballymount, Dublin 24, D24 H6EH, Ireland","Dublin, Ireland",https://www.facebook.com/uniquedayspa.ie,https://www.instagram.com/uniquedayspa1/,UNIQUE DAY SPA,+353 14295749,,https://twitter.com/spa_dublin/,https://uniquedayspa.ie
"ANA InterContinental Manza Beach Resort, Seragaki Onna-son, Kunigami-gun, Okinawa, Japan","Okinawa, Japan",https://www.facebook.com/ANAInterContinentalManzaBeachResort,https://www.instagram.com/ana.ic.manza.beach.resort/,urumo Spa,+81 989661211,,https://twitter.com/anaicmanzabeach,http://www.anaintercontinental-manza.jp/spa-wellness/
"SO/ St. Petersburg, Voznesensky Ave, 6, ","St. Petersburg, Russia",https://www.facebook.com/SoStPetersburg/,https://www.instagram.com/sostpetersburg/,Urban Wellness Zone,+7 8126106161,,,https://www.sostpetersburg.com/urban-wellness-zone-spa/
"Beach Road Salad Beach, Thailand","Koh Phangan, Thailand",https://www.facebook.com/BayResidence,https://www.instagram.com/bay_villas/,Unwind Wellness,+66 632089219,,https://twitter.com/Bay_Residence,https://bayvillas-phangan.com/unwind-wellness/
"Furama Resort Danang, 105 Vo Nguyen Giap Street, Khue My Ward, Ngu Hanh Son District, Danang, Vietnam","Danang, Vietnam",https://www.facebook.com/furamaresort/,,V-Senses Wellness & Spa,+84 2363847333,,,https://furamavietnam.com/spa-and-fitness/
"The Venue Jeddah Corniche, Corniche Road, Ash Shati, Jeddah, ","Jeddah, Saudi Arabia",https://www.facebook.com/thevenuejeddah/,https://www.instagram.com/thevenuejeddah/,V SPA,+966 126139000,,https://twitter.com/thevenuejeddah,https://www.the-venue.com/amenities.html
"V Villas Phuket, MGallery, 39/39 Moo 8 Wichit, Ao Yon Road, Amphoe Muang, Thailand","Phuket, Thailand",https://www.facebook.com/vvillasphuketmgallery,https://www.instagram.com/vvillasphuket/,V Villas Spa,+66 76630939,,,https://www.vvillasphuket.com/
"Almancil, Algarve, Portugal","Algarve, Portugal",https://www.facebook.com/ValedoLoboAlgarve,https://www.instagram.com/vale.do.lobo/,Vale do Lobo Royal Spa,+351 289353261,,,https://www.valedolobo.com/en/wellness/royal-spa/
"Seepromenade 11, Maria Wörth, Austria","Maria Wörth, Austria",https://www.facebook.com/vivamayr.mariawoerth,https://www.instagram.com/vivamayrmariawoerth/,VIVAMAYR Maria Wörth,+43 427331117,,,https://www.vivamayr.com/en/locations/maria-woerth
"Oryx Airport Hotel, Hamad International Airport, Doha, Qatar","Doha, Qatar",,,Vitality Wellbeing & Fitness Centre,+974 40108100,,,https://oryxairporthotel.com/en/OryxAirportHotel/Vitality
"Waldorf Astoria Jeddah - Qasr Al Sharq, Corniche Road, Ash Shati, Jeddah, ","Jeddah, Saudi Arabia",https://www.facebook.com/WaldorfAstoria,https://www.instagram.com/waldorfastoria/,WA Spa at Waldorf Astoria Jeddah – Qasr Al Sharq,+966 592765462,https://za.pinterest.com/waldorfastoria/,https://twitter.com/waldorfastoria,https://www.hilton.com/en/hotels/jedwawa-waldorf-astoria-jeddah-qasr-al-sharq/spa/
"Vivari Hotel And Spa By Mantis, Ext 8, 1 Riviera Ln, Featherbrooke Estate, Johannesburg","Johannesburg, South Africa",https://www.facebook.com/vivarihotel/,https://www.instagram.com/vivari_hotel/,VIVARI SPA,+27 0105944100,,,https://vivarispa.com/
"Waldorf Astoria Edinburgh - The Caledonian, Princes Street, Edinburgh, United Kingdom","Edinburgh, United Kingdom",https://www.facebook.com/waldorfastoriaspaedinburgh,https://www.instagram.com/waedinburgh/,Waldorf Astoria Spa at Waldorf Astoria Edinburgh – The Caledonian,+44 1312228836,,,https://www.hilton.com/en/hotels/ednchwa-waldorf-astoria-edinburgh-the-caledonian/spa/
"Bürgenstock 17, Obbürgen, 6363, Switzerland",,https://www.facebook.com/buergenstockresort/,https://www.instagram.com/buergenstockresort/,Waldhotel Health & Medical Excellence,+41 416126670,,https://twitter.com/BuergenstockNOW,https://www.buergenstock.ch/en/spa
"1 Hibiscus Highway,","Savusavu, Fiji",https://www.facebook.com/NamaleResort,https://www.instagram.com/namaleresort/?hl=fr,Valeni Sasauni Spa & Sanctuary,+679 8850435,,,https://www.namalefiji.com/spa/
"Büyükdere Caddesi, 76 B Mecidiyeköy, Istanbul, Turkey","Istanbul, Turkey",https://www.facebook.com/fairmontquasaristanbul/,https://www.instagram.com/fairmontquasaristanbul/?hl=en,Willow Stream Spa at Fairmont Quasar Istanbul,+90 2124038500,,https://twitter.com/fairmontist?lang=en,https://www.fairmont.com/istanbul/spa/willow-stream-spa/
"Fairmont The Palm, Palm Jumeirah, Dubai, United Arab Emirates","Dubai, United Arab Emirates",https://www.facebook.com/FairmontThePalm,https://www.instagram.com/fairmontthepalm/,"Willow Stream Spa, at Fairmont The Palm",+971 44573545,,https://twitter.com/FairmontThePalm,https://www.fairmont.com/palm-dubai/spa/willow-stream-spa-at-fairmont-the-palm/
"Muldersdrift, Krugersdorp, Gauteng, South Africa","Krugersdorp, South Africa",https://www.facebook.com/SpaWoodlands/,https://www.instagram.com/woodlands_spa/?hl=en,Woodlands Healing Spa,+27 100105026,,,https://www.woodlandsspa.co.za
"MOUNT WOLSELEY HOTEL, Spa & Golf Resort, Tullow, Co. Carlow, Ireland","Tullow, Ireland",https://www.facebook.com/mountwolseleyhotel,https://www.instagram.com/mountwolseley/,Wolseley Spa,+353 599180116,,https://twitter.com/mountwolseley,https://www.mountwolseley.ie/
"Meliá Koh Samui, 83 Moo 5, Choeng Mon Beach, Koh Samui, Surat Thani, Thailand","Koh Samui, Thailand",https://www.facebook.com/meliakohsamui,https://www.instagram.com/meliakohsamui/,YHI SPA at Meliá Koh Samui,+66 77938899,,,https://www.melia.com/en/hotels/thailand/koh-samui/melia-koh-samui/services.htm?
"Sun Gardens Dubrovnik, Na moru 1, Orašac, Dubrovnik, Croatia","Dubrovnik, Croatia",https://www.facebook.com/yestobeautyspa,https://www.instagram.com/yes_to_beauty_/,Yes to BEAUTY SPA at Sun Gardens Dubrovnik,+385 20361970,,,https://www.dubrovniksungardens.com/en/resort-experience/experience/spa-centre-1
"Waldorf Astoria Cancun, Carr Federal Libre 307 Cancun-Tulum, Cancun, ROO, Mexico","Cancun, Mexico",https://www.facebook.com/WaldorfAstoriaCancun/,https://www.instagram.com/waldorfastoriacancun/?hl=en,Waldorf Astoria Spa Cancun,+52 9984320350,,,https://www.hilton.com/en/hotels/cunwawa-waldorf-astoria-cancun/spa/
"Imerovigli, 847 00, Greece","Santorini, Greece",https://www.facebook.com/divinecaveexperiencesantorini,https://www.instagram.com/divinecaveexperience/,Wellness Cave,+30 2286024654,,,https://www.divinesuites.com/wellness-cave-area/
Meliá Ho Tram Beach Resort,"Ho Tram, Vietnam",https://www.facebook.com/MeliaHoTramBeachResort/,https://www.instagram.com/meliahotrambeachresort/,YHI Spa by Meliá Ho Tram Beach Resort,+84 2543789000,,,https://www.melia.com/en/hotels/vietnam/vung-tau/melia-ho-tram-beach-resort/breeza-beach-club.htm
"Laboratoires Multaler, Argenteuil, France","Argenteuil, France",https://www.facebook.com/YonKaFrance/,https://www.instagram.com/yonkafr/?hl=fr,YON-KA  Beauty Products,+33 141195656,,,https://www.yonka.com/
"Hotel Riu Garoe, Calle Dr. Celestino Gonzàlez Padrón 3, Puerto de la Cruz, Santa Cruz de Tenerife, Spain","Santa Cruz de Tenerife, Spain",https://www.facebook.com/spawellplus,https://www.instagram.com/spawellplus/,Wellness Center Riu Garoé,+34 625722226,,,https://spawellplus.es/en/riu-garoe-spa/
"Le Parc Hôtel Obernai, 169 Route d'Ottrott, Obernai, France","Obernai, France",https://web.facebook.com/leparcobernai?_rdc=1&_rdr,https://www.instagram.com/leparcobernai/,Yonaguni Spa,+33 388955008,,,https://www.leparchotel.fr/en/luxury-hotel-spa-alsace
"SUN & MOON, Riverside Hotel, Waterfront, Norodom Blvd., Village 10 Sangkat Tonle Bassac, Phnom Penh, Cambodia","Phnom Penh, Cambodia",https://www.facebook.com/sunandmoonriverside,https://www.instagram.com/sunandmoonriversidehotel/,WELL Spa,+855 23866668,,,https://www.sunandmoonhotelgroup.com/hotels/riverside-hotel/wellness-fitness.html?lang=en
"Cra 11B No 119-28, Multicentro, Bogota, Colombia","Bogota, Colombia",https://www.facebook.com/WellnessSpaMovil/,https://www.instagram.com/wellnessspamovil/,Wellness Spa Movil Center,+57 3057341600,,https://twitter.com/wellnesspamovil,https://www.wellnesspamovil.com/
"NeXTeracom Tower 1, Lot A4","Ebene, Mauritius",https://www.facebook.com/wavesesthetique/,https://www.instagram.com/waves_esthetique_and_spa,Waves Esthetique & Spa,+230 4672591,,https://twitter.com/spa_esthetique,https://wavesesthetiqueandspa.com/
"8/1 Ratvithi Road, Sriphoom, Amphoe Muang, Chiang Mai, Thailand","Chiang Mai, Thailand",https://www.facebook.com/ziraspa/,,Zira Spa,+66 53222288,,,http://www.ziraspa.com/?fbclid=IwAR0LgdDgcRaCUWBEqZ9W6Vl3vGhXN6Dd8JU7M10hzVmWgzuVvD28uCBT7lY
"Swiss Diamond Hotel Prishtina, Sheshi Nëna Terezë p.n., Pristina, Kosovo","Prishtina, Kosovo",https://www.facebook.com/SwissDiamondHotelPrishtina/,https://www.instagram.com/swissdiamondhotelprishtina/,Venus Wellness & Spa,+383 38220000,,,https://www.swissdiamondgroup.com/en/prishtina/medical-spa-pristina/venus-wellness-health-and-spa
"Vana Belle, a Luxury Collection Resort, Koh Samui, 9/99 Moo 3, Chaweng Noi Beach, Surat Thani, Koh Samui, Thailand","Koh Samui, Thailand",https://www.facebook.com/vanabellekohsamui,https://www.instagram.com/vanabelle.kohsamui/,Vana Spa,+66 77 915561,,,https://www.marriott.com/hotels/hotel-information/fitness-spa-services/details/usmvl-vana-belle-a-luxury-collection-resort-koh-samui/6033940/
"Ramada by Wyndham Sofia City Center, 131 Maria Luiza Blvd, Sofia, Bulgaria","Sofia, Bulgaria",https://www.facebook.com/SPAmassageBEAUTYsportsSWIMMINGbodypumpASIANRITUALS,https://www.instagram.com/victoria_spa_bulgaria/,VICTORIA SPA,+359897994199,,,https://ramada-sofia.victoria-spa.com/index.php?route=common/home
"Royal Road, Quartier Militaire, Mauritius","Quartier Militaire, Mauritius",https://www.facebook.com/Visage-Le-Spa-626159921222070/,https://www.instagram.com/le_visagespa/?hl=en,Visage Le Spa,+230 58610423,,,
"VILA VITA Parc Resort & Spa, Rua Anneliese Pohl Alporchinhos, Portugal","Porches, Portugal",https://www.facebook.com/vilavitaparc/,https://www.instagram.com/vilavitaparc/,VILA VITA Spa by Sisley Paris,+351 282310100 ,https://za.pinterest.com/vilavitaparc/,https://twitter.com/vilavitaparc,https://vilavitaparc.com/en/experiences/vila-vita-spa-sisley-paris
"Le Méridien Bodrum Beach Resort, Boğaziçi, Yazlik Siteler Sokak No 60, Milas, Muğla, Turkey","Bodrum, Turkey",https://www.facebook.com/vitalicawellness/,https://www.instagram.com/vitalicawellness,Vitalica Wellness,+90 2523110505,,,https://vitalicawellness.com/
